{
"type": "FeatureCollection",
"name": "keselamatan_point_wgs84",
"crs": { "type": "name", "properties": { "name": "urn:ogc:def:crs:OGC:1.3:CRS84" } },
"features": [
{ "type": "Feature", "properties": { "UID": "PDRM-106", "AGENSI": "PDRM", "KATEGORI": "BALAI POLIS", "HIERARKI": "BALAI/UNIT", "NAMA": "Balai Polis Bagan Nakhoda Omar", "UNIT": "PENGURUSAN", "INDUK": "IPD Sabak Bernam", "ZON": null, "DAERAH": null, "PBT": null, "ALAMAT": null, "TELEFON": null, "SRC_ID": "106", "X_CASS": -91196.416, "Y_CASS": 66473.91, "LATITUDE": 3.7750227, "LONGITUDE": 100.8817216, "GEOM_OK": true }, "geometry": { "type": "Point", "coordinates": [ 100.881721556014611, 3.775022743045403 ] } },
{ "type": "Feature", "properties": { "UID": "PDRM-102", "AGENSI": "PDRM", "KATEGORI": "BALAI POLIS", "HIERARKI": "BALAI/UNIT", "NAMA": "Balai Polis Sabak Bernam", "UNIT": "PENGURUSAN", "INDUK": "IPD Sabak Bernam", "ZON": null, "DAERAH": null, "PBT": null, "ALAMAT": null, "TELEFON": null, "SRC_ID": "102", "X_CASS": -79800.297, "Y_CASS": 65218.244, "LATITUDE": 3.7637217, "LONGITUDE": 100.984321, "GEOM_OK": true }, "geometry": { "type": "Point", "coordinates": [ 100.984320985948173, 3.763721676187979 ] } },
{ "type": "Feature", "properties": { "UID": "PDRM-011", "AGENSI": "PDRM", "KATEGORI": "IPD", "HIERARKI": "DAERAH", "NAMA": "IPD Sabak Bernam", "UNIT": "PENGURUSAN", "INDUK": "IPD Sabak Bernam", "ZON": null, "DAERAH": null, "PBT": null, "ALAMAT": "Sabak Bernam, Selangor", "TELEFON": null, "SRC_ID": "11", "X_CASS": -79307.854, "Y_CASS": 55780.918, "LATITUDE": 3.6783811, "LONGITUDE": 100.9887927, "GEOM_OK": true }, "geometry": { "type": "Point", "coordinates": [ 100.988792697940596, 3.678381136331936 ] } },
{ "type": "Feature", "properties": { "UID": "PDRM-103", "AGENSI": "PDRM", "KATEGORI": "BALAI POLIS", "HIERARKI": "BALAI/UNIT", "NAMA": "Balai Polis Sungai Besar", "UNIT": "PENGURUSAN", "INDUK": "IPD Sabak Bernam", "ZON": null, "DAERAH": null, "PBT": null, "ALAMAT": null, "TELEFON": null, "SRC_ID": "103", "X_CASS": -79307.854, "Y_CASS": 55780.918, "LATITUDE": 3.6783811, "LONGITUDE": 100.9887927, "GEOM_OK": true }, "geometry": { "type": "Point", "coordinates": [ 100.988792697940596, 3.678381136331936 ] } },
{ "type": "Feature", "properties": { "UID": "PDRM-105", "AGENSI": "PDRM", "KATEGORI": "BALAI POLIS", "HIERARKI": "BALAI/UNIT", "NAMA": "Balai Polis Sungai Air Tawar", "UNIT": "PENGURUSAN", "INDUK": "IPD Sabak Bernam", "ZON": null, "DAERAH": null, "PBT": null, "ALAMAT": null, "TELEFON": null, "SRC_ID": "105", "X_CASS": -89676.323, "Y_CASS": 73859.512, "LATITUDE": 3.8418183, "LONGITUDE": 100.8953682, "GEOM_OK": true }, "geometry": { "type": "Point", "coordinates": [ 100.895368215223201, 3.841818323339351 ] } },
{ "type": "Feature", "properties": { "UID": "PDRM-104", "AGENSI": "PDRM", "KATEGORI": "BALAI POLIS", "HIERARKI": "BALAI/UNIT", "NAMA": "Balai Polis Sekinchan", "UNIT": "PENGURUSAN", "INDUK": "IPD Sabak Bernam", "ZON": null, "DAERAH": null, "PBT": null, "ALAMAT": null, "TELEFON": null, "SRC_ID": "104", "X_CASS": -66855.018, "Y_CASS": 36688.782, "LATITUDE": 3.5057701, "LONGITUDE": 101.100942, "GEOM_OK": true }, "geometry": { "type": "Point", "coordinates": [ 101.100941961830046, 3.505770106207812 ] } },
{ "type": "Feature", "properties": { "UID": "PDRM-089", "AGENSI": "PDRM", "KATEGORI": "PONDOK POLIS", "HIERARKI": "BALAI/UNIT", "NAMA": "Pondok Polis Sungai Sireh", "UNIT": "PENGURUSAN", "INDUK": "IPD Kuala Selangor", "ZON": null, "DAERAH": null, "PBT": null, "ALAMAT": null, "TELEFON": null, "SRC_ID": "89", "X_CASS": -58809.714, "Y_CASS": 32889.734, "LATITUDE": 3.4714338, "LONGITUDE": 101.1733566, "GEOM_OK": true }, "geometry": { "type": "Point", "coordinates": [ 101.173356580408765, 3.471433767328814 ] } },
{ "type": "Feature", "properties": { "UID": "PDRM-085", "AGENSI": "PDRM", "KATEGORI": "BALAI POLIS", "HIERARKI": "BALAI/UNIT", "NAMA": "Balai Polis Tanjung Karang", "UNIT": "PENGURUSAN", "INDUK": "IPD Kuala Selangor", "ZON": null, "DAERAH": null, "PBT": null, "ALAMAT": null, "TELEFON": null, "SRC_ID": "85", "X_CASS": -59253.717, "Y_CASS": 27692.769, "LATITUDE": 3.4244351, "LONGITUDE": 101.1693715, "GEOM_OK": true }, "geometry": { "type": "Point", "coordinates": [ 101.169371540648044, 3.424435132616468 ] } },
{ "type": "Feature", "properties": { "UID": "PDRM-088", "AGENSI": "PDRM", "KATEGORI": "PONDOK POLIS", "HIERARKI": "BALAI/UNIT", "NAMA": "Pondok Polis Sungai Yu", "UNIT": "PENGURUSAN", "INDUK": "IPD Kuala Selangor", "ZON": null, "DAERAH": null, "PBT": null, "ALAMAT": null, "TELEFON": null, "SRC_ID": "88", "X_CASS": -54163.234, "Y_CASS": 22599.019, "LATITUDE": 3.3783801, "LONGITUDE": 101.2151896, "GEOM_OK": true }, "geometry": { "type": "Point", "coordinates": [ 101.215189637168393, 3.378380099239043 ] } },
{ "type": "Feature", "properties": { "UID": "PDRM-009", "AGENSI": "PDRM", "KATEGORI": "IPD", "HIERARKI": "DAERAH", "NAMA": "IPD Kuala Selangor", "UNIT": "PENGURUSAN", "INDUK": "IPD Kuala Selangor", "ZON": null, "DAERAH": null, "PBT": null, "ALAMAT": "45000 Kuala Selangor, Selangor", "TELEFON": "03-32891222", "SRC_ID": "9", "X_CASS": -48697.123, "Y_CASS": 16297.661, "LATITUDE": 3.3214022, "LONGITUDE": 101.2643847, "GEOM_OK": true }, "geometry": { "type": "Point", "coordinates": [ 101.264384672106985, 3.321402220751652 ] } },
{ "type": "Feature", "properties": { "UID": "PDRM-084", "AGENSI": "PDRM", "KATEGORI": "BALAI POLIS", "HIERARKI": "BALAI/UNIT", "NAMA": "Balai Polis Kuala Selangor", "UNIT": "PENGURUSAN", "INDUK": "IPD Kuala Selangor", "ZON": null, "DAERAH": null, "PBT": null, "ALAMAT": null, "TELEFON": null, "SRC_ID": "84", "X_CASS": -48697.123, "Y_CASS": 16297.661, "LATITUDE": 3.3214022, "LONGITUDE": 101.2643847, "GEOM_OK": true }, "geometry": { "type": "Point", "coordinates": [ 101.264384672106985, 3.321402220751652 ] } },
{ "type": "Feature", "properties": { "UID": "PDRM-083", "AGENSI": "PDRM", "KATEGORI": "BALAI POLIS", "HIERARKI": "BALAI/UNIT", "NAMA": "Balai Polis Jeram", "UNIT": "PENGURUSAN", "INDUK": "IPD Kuala Selangor", "ZON": null, "DAERAH": null, "PBT": null, "ALAMAT": null, "TELEFON": null, "SRC_ID": "83", "X_CASS": -43023.032, "Y_CASS": 5779.831, "LATITUDE": 3.2262905, "LONGITUDE": 101.315448, "GEOM_OK": true }, "geometry": { "type": "Point", "coordinates": [ 101.315448029831529, 3.226290517700502 ] } },
{ "type": "Feature", "properties": { "UID": "PDRM-055", "AGENSI": "PDRM", "KATEGORI": "BALAI POLIS", "HIERARKI": "BALAI/UNIT", "NAMA": "Balai Polis Ulu Bernam", "UNIT": "PENGURUSAN", "INDUK": "IPD Hulu Selangor", "ZON": null, "DAERAH": null, "PBT": null, "ALAMAT": null, "TELEFON": null, "SRC_ID": "55", "X_CASS": -19736.14, "Y_CASS": 55007.506, "LATITUDE": 3.6714667, "LONGITUDE": 101.5250308, "GEOM_OK": true }, "geometry": { "type": "Point", "coordinates": [ 101.525030812107076, 3.671466691333038 ] } },
{ "type": "Feature", "properties": { "UID": "PDRM-050", "AGENSI": "PDRM", "KATEGORI": "BALAI POLIS", "HIERARKI": "BALAI/UNIT", "NAMA": "Balai Polis Kerling", "UNIT": "PENGURUSAN", "INDUK": "IPD Hulu Selangor", "ZON": null, "DAERAH": null, "PBT": null, "ALAMAT": null, "TELEFON": null, "SRC_ID": "50", "X_CASS": -11123.621, "Y_CASS": 46066.322, "LATITUDE": 3.590594, "LONGITUDE": 101.6025374, "GEOM_OK": true }, "geometry": { "type": "Point", "coordinates": [ 101.602537447132875, 3.590593971082201 ] } },
{ "type": "Feature", "properties": { "UID": "PDRM-054", "AGENSI": "PDRM", "KATEGORI": "BALAI POLIS", "HIERARKI": "BALAI/UNIT", "NAMA": "Balai Polis Kalumpang", "UNIT": "PENGURUSAN", "INDUK": "IPD Hulu Selangor", "ZON": null, "DAERAH": null, "PBT": null, "ALAMAT": null, "TELEFON": null, "SRC_ID": "54", "X_CASS": -14435.596, "Y_CASS": 51521.972, "LATITUDE": 3.6399375, "LONGITUDE": 101.5727373, "GEOM_OK": true }, "geometry": { "type": "Point", "coordinates": [ 101.572737267309094, 3.639937472098032 ] } },
{ "type": "Feature", "properties": { "UID": "PDRM-005", "AGENSI": "PDRM", "KATEGORI": "IPD", "HIERARKI": "DAERAH", "NAMA": "IPD Hulu Selangor", "UNIT": "PENGURUSAN", "INDUK": "IPD Hulu Selangor", "ZON": null, "DAERAH": null, "PBT": null, "ALAMAT": "44000 Kuala Kubu Bharu, Selangor", "TELEFON": "03-60651021", "SRC_ID": "5", "X_CASS": -4697.358, "Y_CASS": 42926.857, "LATITUDE": 3.5621876, "LONGITUDE": 101.66037, "GEOM_OK": true }, "geometry": { "type": "Point", "coordinates": [ 101.660369983597249, 3.562187644264626 ] } },
{ "type": "Feature", "properties": { "UID": "PDRM-048", "AGENSI": "PDRM", "KATEGORI": "BALAI POLIS", "HIERARKI": "BALAI/UNIT", "NAMA": "Balai Polis Kuala Kubu Bharu", "UNIT": "PENGURUSAN", "INDUK": "IPD Hulu Selangor", "ZON": null, "DAERAH": null, "PBT": null, "ALAMAT": null, "TELEFON": null, "SRC_ID": "48", "X_CASS": -4697.358, "Y_CASS": 42926.857, "LATITUDE": 3.5621876, "LONGITUDE": 101.66037, "GEOM_OK": true }, "geometry": { "type": "Point", "coordinates": [ 101.660369983597249, 3.562187644264626 ] } },
{ "type": "Feature", "properties": { "UID": "PDRM-051", "AGENSI": "PDRM", "KATEGORI": "BALAI POLIS", "HIERARKI": "BALAI/UNIT", "NAMA": "Balai Polis Rasa", "UNIT": "PENGURUSAN", "INDUK": "IPD Hulu Selangor", "ZON": null, "DAERAH": null, "PBT": null, "ALAMAT": null, "TELEFON": null, "SRC_ID": "51", "X_CASS": -7675.5, "Y_CASS": 35979.141, "LATITUDE": 3.4993651, "LONGITUDE": 101.633549, "GEOM_OK": true }, "geometry": { "type": "Point", "coordinates": [ 101.63354900971926, 3.499365119462614 ] } },
{ "type": "Feature", "properties": { "UID": "PDRM-049", "AGENSI": "PDRM", "KATEGORI": "BALAI POLIS", "HIERARKI": "BALAI/UNIT", "NAMA": "Balai Polis Batang Kali", "UNIT": "PENGURUSAN", "INDUK": "IPD Hulu Selangor", "ZON": null, "DAERAH": null, "PBT": null, "ALAMAT": null, "TELEFON": null, "SRC_ID": "49", "X_CASS": -6997.897, "Y_CASS": 32545.911, "LATITUDE": 3.4683159, "LONGITUDE": 101.6396391, "GEOM_OK": true }, "geometry": { "type": "Point", "coordinates": [ 101.639639101624411, 3.468315863546426 ] } },
{ "type": "Feature", "properties": { "UID": "PDRM-053", "AGENSI": "PDRM", "KATEGORI": "BALAI POLIS", "HIERARKI": "BALAI/UNIT", "NAMA": "Balai Polis Bukit Sentosa", "UNIT": "PENGURUSAN", "INDUK": "IPD Hulu Selangor", "ZON": null, "DAERAH": null, "PBT": null, "ALAMAT": null, "TELEFON": null, "SRC_ID": "53", "X_CASS": -15568.434, "Y_CASS": 25120.024, "LATITUDE": 3.4011785, "LONGITUDE": 101.5624962, "GEOM_OK": true }, "geometry": { "type": "Point", "coordinates": [ 101.562496217566462, 3.401178487355681 ] } },
{ "type": "Feature", "properties": { "UID": "PDRM-082", "AGENSI": "PDRM", "KATEGORI": "BALAI POLIS", "HIERARKI": "BALAI/UNIT", "NAMA": "Balai Polis Bestari Jaya", "UNIT": "PENGURUSAN", "INDUK": "IPD Kuala Selangor", "ZON": null, "DAERAH": null, "PBT": null, "ALAMAT": null, "TELEFON": null, "SRC_ID": "82", "X_CASS": -32618.279, "Y_CASS": 22454.408, "LATITUDE": 3.3770878, "LONGITUDE": 101.4090659, "GEOM_OK": true }, "geometry": { "type": "Point", "coordinates": [ 101.409065917343781, 3.377087755119605 ] } },
{ "type": "Feature", "properties": { "UID": "PDRM-052", "AGENSI": "PDRM", "KATEGORI": "BALAI POLIS", "HIERARKI": "BALAI/UNIT", "NAMA": "Balai Polis Serendah", "UNIT": "PENGURUSAN", "INDUK": "IPD Hulu Selangor", "ZON": null, "DAERAH": null, "PBT": null, "ALAMAT": null, "TELEFON": null, "SRC_ID": "52", "X_CASS": -10887.785, "Y_CASS": 21401.36, "LATITUDE": 3.3675409, "LONGITUDE": 101.6046095, "GEOM_OK": true }, "geometry": { "type": "Point", "coordinates": [ 101.604609463446195, 3.367540924815827 ] } },
{ "type": "Feature", "properties": { "UID": "PDRM-034", "AGENSI": "PDRM", "KATEGORI": "BALAI POLIS", "HIERARKI": "BALAI/UNIT", "NAMA": "Balai Polis Country Homes", "UNIT": "PENGURUSAN", "INDUK": "IPD Gombak", "ZON": null, "DAERAH": null, "PBT": null, "ALAMAT": null, "TELEFON": null, "SRC_ID": "34", "X_CASS": -18433.611, "Y_CASS": 17526.783, "LATITUDE": 3.3325144, "LONGITUDE": 101.5367024, "GEOM_OK": true }, "geometry": { "type": "Point", "coordinates": [ 101.536702445202579, 3.33251444737938 ] } },
{ "type": "Feature", "properties": { "UID": "PDRM-029", "AGENSI": "PDRM", "KATEGORI": "BALAI POLIS", "HIERARKI": "BALAI/UNIT", "NAMA": "Balai Polis Rawang", "UNIT": "PENGURUSAN", "INDUK": "IPD Gombak", "ZON": null, "DAERAH": null, "PBT": null, "ALAMAT": null, "TELEFON": null, "SRC_ID": "29", "X_CASS": -13990.706, "Y_CASS": 16015.031, "LATITUDE": 3.3188363, "LONGITUDE": 101.5766783, "GEOM_OK": true }, "geometry": { "type": "Point", "coordinates": [ 101.576678311076535, 3.318836328432623 ] } },
{ "type": "Feature", "properties": { "UID": "PDRM-086", "AGENSI": "PDRM", "KATEGORI": "PONDOK POLIS", "HIERARKI": "BALAI/UNIT", "NAMA": "Pondok Polis Simpang Tiga Ijok", "UNIT": "PENGURUSAN", "INDUK": "IPD Kuala Selangor", "ZON": null, "DAERAH": null, "PBT": null, "ALAMAT": null, "TELEFON": null, "SRC_ID": "86", "X_CASS": -31799.001, "Y_CASS": 15612.598, "LATITUDE": 3.3152145, "LONGITUDE": 101.4164366, "GEOM_OK": true }, "geometry": { "type": "Point", "coordinates": [ 101.416436614381553, 3.315214457173685 ] } },
{ "type": "Feature", "properties": { "UID": "PDRM-032", "AGENSI": "PDRM", "KATEGORI": "BALAI POLIS", "HIERARKI": "BALAI/UNIT", "NAMA": "Balai Polis Batu Arang", "UNIT": "PENGURUSAN", "INDUK": "IPD Gombak", "ZON": null, "DAERAH": null, "PBT": null, "ALAMAT": null, "TELEFON": null, "SRC_ID": "32", "X_CASS": -28604.329, "Y_CASS": 14319.399, "LATITUDE": 3.3035183, "LONGITUDE": 101.445182, "GEOM_OK": true }, "geometry": { "type": "Point", "coordinates": [ 101.445181966649642, 3.303518342885785 ] } },
{ "type": "Feature", "properties": { "UID": "PDRM-035", "AGENSI": "PDRM", "KATEGORI": "BALAI POLIS", "HIERARKI": "BALAI/UNIT", "NAMA": "Balai Polis Tasik Puteri", "UNIT": "PENGURUSAN", "INDUK": "IPD Gombak", "ZON": null, "DAERAH": null, "PBT": null, "ALAMAT": null, "TELEFON": null, "SRC_ID": "35", "X_CASS": -25499.161, "Y_CASS": 12189.135, "LATITUDE": 3.2842516, "LONGITUDE": 101.4731207, "GEOM_OK": true }, "geometry": { "type": "Point", "coordinates": [ 101.473120670862897, 3.284251560373995 ] } },
{ "type": "Feature", "properties": { "UID": "PDRM-031", "AGENSI": "PDRM", "KATEGORI": "BALAI POLIS", "HIERARKI": "BALAI/UNIT", "NAMA": "Balai Polis Kundang", "UNIT": "PENGURUSAN", "INDUK": "IPD Gombak", "ZON": null, "DAERAH": null, "PBT": null, "ALAMAT": null, "TELEFON": null, "SRC_ID": "31", "X_CASS": -21098.429, "Y_CASS": 11359.448, "LATITUDE": 3.2767443, "LONGITUDE": 101.5127168, "GEOM_OK": true }, "geometry": { "type": "Point", "coordinates": [ 101.512716802129944, 3.276744260160211 ] } },
{ "type": "Feature", "properties": { "UID": "PDRM-090", "AGENSI": "PDRM", "KATEGORI": "PONDOK POLIS", "HIERARKI": "BALAI/UNIT", "NAMA": "Pondok Polis Alam Jaya", "UNIT": "PENGURUSAN", "INDUK": "IPD Kuala Selangor", "ZON": null, "DAERAH": null, "PBT": null, "ALAMAT": null, "TELEFON": null, "SRC_ID": "90", "X_CASS": -28440.182, "Y_CASS": 7198.555, "LATITUDE": 3.2391217, "LONGITUDE": 101.4466553, "GEOM_OK": true }, "geometry": { "type": "Point", "coordinates": [ 101.446655296897475, 3.239121650112614 ] } },
{ "type": "Feature", "properties": { "UID": "PDRM-033", "AGENSI": "PDRM", "KATEGORI": "BALAI POLIS", "HIERARKI": "BALAI/UNIT", "NAMA": "Balai Polis Kuang", "UNIT": "PENGURUSAN", "INDUK": "IPD Gombak", "ZON": null, "DAERAH": null, "PBT": null, "ALAMAT": null, "TELEFON": null, "SRC_ID": "33", "X_CASS": -16495.642, "Y_CASS": 9161.682, "LATITUDE": 3.2568631, "LONGITUDE": 101.5541283, "GEOM_OK": true }, "geometry": { "type": "Point", "coordinates": [ 101.554128348842823, 3.256863071888718 ] } },
{ "type": "Feature", "properties": { "UID": "PDRM-158", "AGENSI": "PDRM", "KATEGORI": "BALAI POLIS", "HIERARKI": "BALAI/UNIT", "NAMA": "Balai Polis Sungai Pelong", "UNIT": "PENGURUSAN", "INDUK": "IPD Sungai Buloh", "ZON": null, "DAERAH": null, "PBT": null, "ALAMAT": null, "TELEFON": null, "SRC_ID": "158", "X_CASS": -19055.505, "Y_CASS": 4572.324, "LATITUDE": 3.2153633, "LONGITUDE": 101.53109, "GEOM_OK": true }, "geometry": { "type": "Point", "coordinates": [ 101.53108997929219, 3.215363305181826 ] } },
{ "type": "Feature", "properties": { "UID": "PDRM-161", "AGENSI": "PDRM", "KATEGORI": "BALAI POLIS", "HIERARKI": "BALAI/UNIT", "NAMA": "Balai Polis Saujana Utama", "UNIT": "PENGURUSAN", "INDUK": "IPD Sungai Buloh", "ZON": null, "DAERAH": null, "PBT": null, "ALAMAT": null, "TELEFON": null, "SRC_ID": "161", "X_CASS": -24645.913, "Y_CASS": 3353.188, "LATITUDE": 3.204344, "LONGITUDE": 101.4807909, "GEOM_OK": true }, "geometry": { "type": "Point", "coordinates": [ 101.48079085674685, 3.204343950875709 ] } },
{ "type": "Feature", "properties": { "UID": "PDRM-016", "AGENSI": "PDRM", "KATEGORI": "IPD", "HIERARKI": "DAERAH", "NAMA": "IPD Sungai Buloh", "UNIT": "PENGURUSAN", "INDUK": "IPD Sungai Buloh", "ZON": null, "DAERAH": null, "PBT": null, "ALAMAT": "Jalan Besar, 47000 Sungai Buloh, Selangor", "TELEFON": "03-61561222", "SRC_ID": "16", "X_CASS": -14964.721, "Y_CASS": 2165.337, "LATITUDE": 3.1935902, "LONGITUDE": 101.5678919, "GEOM_OK": true }, "geometry": { "type": "Point", "coordinates": [ 101.567891892016789, 3.193590225854712 ] } },
{ "type": "Feature", "properties": { "UID": "PDRM-157", "AGENSI": "PDRM", "KATEGORI": "BALAI POLIS", "HIERARKI": "BALAI/UNIT", "NAMA": "Balai Polis Daerah Sungai Buloh", "UNIT": "PENGURUSAN", "INDUK": "IPD Sungai Buloh", "ZON": null, "DAERAH": null, "PBT": null, "ALAMAT": null, "TELEFON": null, "SRC_ID": "157", "X_CASS": -14964.721, "Y_CASS": 2165.337, "LATITUDE": 3.1935902, "LONGITUDE": 101.5678919, "GEOM_OK": true }, "geometry": { "type": "Point", "coordinates": [ 101.567891892016789, 3.193590225854712 ] } },
{ "type": "Feature", "properties": { "UID": "PDRM-099", "AGENSI": "PDRM", "KATEGORI": "BALAI KOMUNITI", "HIERARKI": "BALAI/UNIT", "NAMA": "Balai Polis Komuniti Bandar Sri Damansara", "UNIT": "JPJKK", "INDUK": "IPD Petaling Jaya", "ZON": null, "DAERAH": null, "PBT": null, "ALAMAT": null, "TELEFON": null, "SRC_ID": "99", "X_CASS": -10174.415, "Y_CASS": 2182.407, "LATITUDE": 3.1937362, "LONGITUDE": 101.6109905, "GEOM_OK": true }, "geometry": { "type": "Point", "coordinates": [ 101.610990465289845, 3.193736155440621 ] } },
{ "type": "Feature", "properties": { "UID": "PDRM-030", "AGENSI": "PDRM", "KATEGORI": "BALAI POLIS", "HIERARKI": "BALAI/UNIT", "NAMA": "Balai Polis Desa Jaya", "UNIT": "PENGURUSAN", "INDUK": "IPD Gombak", "ZON": null, "DAERAH": null, "PBT": null, "ALAMAT": null, "TELEFON": null, "SRC_ID": "30", "X_CASS": -8721.723, "Y_CASS": 5302.427, "LATITUDE": 3.2219486, "LONGITUDE": 101.6240668, "GEOM_OK": true }, "geometry": { "type": "Point", "coordinates": [ 101.624066825508521, 3.221948619676514 ] } },
{ "type": "Feature", "properties": { "UID": "PDRM-003", "AGENSI": "PDRM", "KATEGORI": "IPD", "HIERARKI": "DAERAH", "NAMA": "IPD Gombak", "UNIT": "PENGURUSAN", "INDUK": "IPD Gombak", "ZON": null, "DAERAH": null, "PBT": null, "ALAMAT": "53100 Gombak, Selangor", "TELEFON": "03-61262222", "SRC_ID": "3", "X_CASS": -6800.923, "Y_CASS": 8722.913, "LATITUDE": 3.252877, "LONGITUDE": 101.6413565, "GEOM_OK": true }, "geometry": { "type": "Point", "coordinates": [ 101.64135645057695, 3.252877012085084 ] } },
{ "type": "Feature", "properties": { "UID": "PDRM-028", "AGENSI": "PDRM", "KATEGORI": "BALAI POLIS", "HIERARKI": "BALAI/UNIT", "NAMA": "Balai Polis Selayang", "UNIT": "PENGURUSAN", "INDUK": "IPD Gombak", "ZON": null, "DAERAH": null, "PBT": null, "ALAMAT": null, "TELEFON": null, "SRC_ID": "28", "X_CASS": -6800.923, "Y_CASS": 8722.913, "LATITUDE": 3.252877, "LONGITUDE": 101.6413565, "GEOM_OK": true }, "geometry": { "type": "Point", "coordinates": [ 101.64135645057695, 3.252877012085084 ] } },
{ "type": "Feature", "properties": { "UID": "PDRM-038", "AGENSI": "PDRM", "KATEGORI": "PONDOK POLIS", "HIERARKI": "BALAI/UNIT", "NAMA": "Pondok Polis Hospital Selayang", "UNIT": "PENGURUSAN", "INDUK": "IPD Gombak", "ZON": null, "DAERAH": null, "PBT": null, "ALAMAT": null, "TELEFON": null, "SRC_ID": "38", "X_CASS": -6091.146, "Y_CASS": 7579.816, "LATITUDE": 3.242538, "LONGITUDE": 101.6477401, "GEOM_OK": true }, "geometry": { "type": "Point", "coordinates": [ 101.647740076762872, 3.24253800606856 ] } },
{ "type": "Feature", "properties": { "UID": "PDRM-037", "AGENSI": "PDRM", "KATEGORI": "PONDOK POLIS", "HIERARKI": "BALAI/UNIT", "NAMA": "Pondok Polis Selayang Baru", "UNIT": "PENGURUSAN", "INDUK": "IPD Gombak", "ZON": null, "DAERAH": null, "PBT": null, "ALAMAT": null, "TELEFON": null, "SRC_ID": "37", "X_CASS": -3510.751, "Y_CASS": 8190.741, "LATITUDE": 3.2480566, "LONGITUDE": 101.6709586, "GEOM_OK": true }, "geometry": { "type": "Point", "coordinates": [ 101.670958604110695, 3.248056551860262 ] } },
{ "type": "Feature", "properties": { "UID": "PDRM-036", "AGENSI": "PDRM", "KATEGORI": "BALAI POLIS", "HIERARKI": "BALAI/UNIT", "NAMA": "Balai Polis Batu Caves", "UNIT": "PENGURUSAN", "INDUK": "IPD Gombak", "ZON": null, "DAERAH": null, "PBT": null, "ALAMAT": null, "TELEFON": null, "SRC_ID": "36", "X_CASS": -1622.846, "Y_CASS": 6750.917, "LATITUDE": 3.2350309, "LONGITUDE": 101.6879412, "GEOM_OK": true }, "geometry": { "type": "Point", "coordinates": [ 101.687941233312756, 3.235030921025154 ] } },
{ "type": "Feature", "properties": { "UID": "PDRM-027", "AGENSI": "PDRM", "KATEGORI": "BALAI POLIS", "HIERARKI": "BALAI/UNIT", "NAMA": "Balai Polis Gombak", "UNIT": "PENGURUSAN", "INDUK": "IPD Gombak", "ZON": null, "DAERAH": null, "PBT": null, "ALAMAT": null, "TELEFON": null, "SRC_ID": "27", "X_CASS": 1205.683, "Y_CASS": 4940.158, "LATITUDE": 3.2186479, "LONGITUDE": 101.7133854, "GEOM_OK": true }, "geometry": { "type": "Point", "coordinates": [ 101.713385432871334, 3.218647903323648 ] } },
{ "type": "Feature", "properties": { "UID": "PDRM-020", "AGENSI": "PDRM", "KATEGORI": "BALAI POLIS", "HIERARKI": "BALAI/UNIT", "NAMA": "Balai Polis Taman Melawati", "UNIT": "PENGURUSAN", "INDUK": "IPD Ampang Jaya", "ZON": null, "DAERAH": null, "PBT": null, "ALAMAT": null, "TELEFON": null, "SRC_ID": "20", "X_CASS": 4972.316, "Y_CASS": 4217.974, "LATITUDE": 3.2121056, "LONGITUDE": 101.7472725, "GEOM_OK": true }, "geometry": { "type": "Point", "coordinates": [ 101.747272492533867, 3.212105635908733 ] } },
{ "type": "Feature", "properties": { "UID": "PDRM-022", "AGENSI": "PDRM", "KATEGORI": "BALAI POLIS", "HIERARKI": "BALAI/UNIT", "NAMA": "Balai Polis Ukay Perdana", "UNIT": "PENGURUSAN", "INDUK": "IPD Ampang Jaya", "ZON": null, "DAERAH": null, "PBT": null, "ALAMAT": null, "TELEFON": null, "SRC_ID": "22", "X_CASS": 8315.541, "Y_CASS": 3362.47, "LATITUDE": 3.2043581, "LONGITUDE": 101.7773492, "GEOM_OK": true }, "geometry": { "type": "Point", "coordinates": [ 101.777349211438974, 3.204358106871682 ] } },
{ "type": "Feature", "properties": { "UID": "PDRM-019", "AGENSI": "PDRM", "KATEGORI": "BALAI POLIS", "HIERARKI": "BALAI/UNIT", "NAMA": "Balai Polis Hulu Klang", "UNIT": "PENGURUSAN", "INDUK": "IPD Ampang Jaya", "ZON": null, "DAERAH": null, "PBT": null, "ALAMAT": null, "TELEFON": null, "SRC_ID": "19", "X_CASS": 5514.002, "Y_CASS": 243.204, "LATITUDE": 3.1761592, "LONGITUDE": 101.7521335, "GEOM_OK": true }, "geometry": { "type": "Point", "coordinates": [ 101.752133518237912, 3.176159150358258 ] } },
{ "type": "Feature", "properties": { "UID": "PDRM-025", "AGENSI": "PDRM", "KATEGORI": "BALAI POLIS", "HIERARKI": "BALAI/UNIT", "NAMA": "Balai Polis Bukit Indah", "UNIT": "PENGURUSAN", "INDUK": "IPD Ampang Jaya", "ZON": null, "DAERAH": null, "PBT": null, "ALAMAT": null, "TELEFON": null, "SRC_ID": "25", "X_CASS": 8049.104, "Y_CASS": -2369.456, "LATITUDE": 3.152524, "LONGITUDE": 101.7749328, "GEOM_OK": true }, "geometry": { "type": "Point", "coordinates": [ 101.774932788946231, 3.152524007759978 ] } },
{ "type": "Feature", "properties": { "UID": "PDRM-002", "AGENSI": "PDRM", "KATEGORI": "IPD", "HIERARKI": "DAERAH", "NAMA": "IPD Ampang Jaya", "UNIT": "PENGURUSAN", "INDUK": "IPD Ampang Jaya", "ZON": null, "DAERAH": null, "PBT": null, "ALAMAT": "Taman Dagang, 68000 Ampang, Selangor", "TELEFON": "03-42897222", "SRC_ID": "2", "X_CASS": 5993.491, "Y_CASS": -2741.398, "LATITUDE": 3.1491672, "LONGITUDE": 101.7564379, "GEOM_OK": true }, "geometry": { "type": "Point", "coordinates": [ 101.756437927384454, 3.149167171355149 ] } },
{ "type": "Feature", "properties": { "UID": "PDRM-017", "AGENSI": "PDRM", "KATEGORI": "BALAI POLIS", "HIERARKI": "BALAI/UNIT", "NAMA": "Balai Polis Ampang", "UNIT": "PENGURUSAN", "INDUK": "IPD Ampang Jaya", "ZON": null, "DAERAH": null, "PBT": null, "ALAMAT": null, "TELEFON": null, "SRC_ID": "17", "X_CASS": 7398.571, "Y_CASS": -4724.097, "LATITUDE": 3.1312326, "LONGITUDE": 101.7690725, "GEOM_OK": true }, "geometry": { "type": "Point", "coordinates": [ 101.769072455462194, 3.131232636575549 ] } },
{ "type": "Feature", "properties": { "UID": "PDRM-026", "AGENSI": "PDRM", "KATEGORI": "PONDOK POLIS", "HIERARKI": "BALAI/UNIT", "NAMA": "Pondok Polis Hospital Ampang", "UNIT": "PENGURUSAN", "INDUK": "IPD Ampang Jaya", "ZON": null, "DAERAH": null, "PBT": null, "ALAMAT": null, "TELEFON": null, "SRC_ID": "26", "X_CASS": 6767.631, "Y_CASS": -5047.39, "LATITUDE": 3.1283111, "LONGITUDE": 101.7633952, "GEOM_OK": true }, "geometry": { "type": "Point", "coordinates": [ 101.763395171119626, 3.128311072909162 ] } },
{ "type": "Feature", "properties": { "UID": "PDRM-018", "AGENSI": "PDRM", "KATEGORI": "BALAI POLIS", "HIERARKI": "BALAI/UNIT", "NAMA": "Balai Polis Pandan Indah", "UNIT": "PENGURUSAN", "INDUK": "IPD Ampang Jaya", "ZON": null, "DAERAH": null, "PBT": null, "ALAMAT": null, "TELEFON": null, "SRC_ID": "18", "X_CASS": 5304.185, "Y_CASS": -5089.114, "LATITUDE": 3.1279384, "LONGITUDE": 101.7502292, "GEOM_OK": true }, "geometry": { "type": "Point", "coordinates": [ 101.750229195314972, 3.127938383065687 ] } },
{ "type": "Feature", "properties": { "UID": "PDRM-024", "AGENSI": "PDRM", "KATEGORI": "BALAI POLIS", "HIERARKI": "BALAI/UNIT", "NAMA": "Balai Polis Taman Muda", "UNIT": "PENGURUSAN", "INDUK": "IPD Ampang Jaya", "ZON": null, "DAERAH": null, "PBT": null, "ALAMAT": null, "TELEFON": null, "SRC_ID": "24", "X_CASS": 6473.536, "Y_CASS": -5938.481, "LATITUDE": 3.1202537, "LONGITUDE": 101.7607465, "GEOM_OK": true }, "geometry": { "type": "Point", "coordinates": [ 101.760746517454578, 3.120253677017391 ] } },
{ "type": "Feature", "properties": { "UID": "PDRM-023", "AGENSI": "PDRM", "KATEGORI": "BALAI POLIS", "HIERARKI": "BALAI/UNIT", "NAMA": "Balai Polis Pandan Perdana", "UNIT": "PENGURUSAN", "INDUK": "IPD Ampang Jaya", "ZON": null, "DAERAH": null, "PBT": null, "ALAMAT": null, "TELEFON": null, "SRC_ID": "23", "X_CASS": 4672.566, "Y_CASS": -6847.051, "LATITUDE": 3.1120429, "LONGITUDE": 101.7445415, "GEOM_OK": true }, "geometry": { "type": "Point", "coordinates": [ 101.744541516925167, 3.112042872801506 ] } },
{ "type": "Feature", "properties": { "UID": "PDRM-060", "AGENSI": "PDRM", "KATEGORI": "BALAI POLIS", "HIERARKI": "BALAI/UNIT", "NAMA": "Balai Polis Batu 9 Cheras", "UNIT": "PENGURUSAN", "INDUK": "IPD Kajang", "ZON": null, "DAERAH": null, "PBT": null, "ALAMAT": null, "TELEFON": null, "SRC_ID": "60", "X_CASS": 7594.825, "Y_CASS": -11693.479, "LATITUDE": 3.0682063, "LONGITUDE": 101.7708155, "GEOM_OK": true }, "geometry": { "type": "Point", "coordinates": [ 101.770815469690703, 3.068206286020131 ] } },
{ "type": "Feature", "properties": { "UID": "PDRM-096", "AGENSI": "PDRM", "KATEGORI": "BALAI POLIS", "HIERARKI": "BALAI/UNIT", "NAMA": "Balai Polis Kota Damansara", "UNIT": "PENGURUSAN", "INDUK": "IPD Petaling Jaya", "ZON": null, "DAERAH": null, "PBT": null, "ALAMAT": null, "TELEFON": null, "SRC_ID": "96", "X_CASS": -12132.652, "Y_CASS": -2417.091, "LATITUDE": 3.1521449, "LONGITUDE": 101.593364, "GEOM_OK": true }, "geometry": { "type": "Point", "coordinates": [ 101.593363973805793, 3.152144913173586 ] } },
{ "type": "Feature", "properties": { "UID": "PDRM-092", "AGENSI": "PDRM", "KATEGORI": "BALAI POLIS", "HIERARKI": "BALAI/UNIT", "NAMA": "Balai Polis Damansara", "UNIT": "PENGURUSAN", "INDUK": "IPD Petaling Jaya", "ZON": null, "DAERAH": null, "PBT": null, "ALAMAT": null, "TELEFON": null, "SRC_ID": "92", "X_CASS": -8677.368, "Y_CASS": -4590.467, "LATITUDE": 3.1324837, "LONGITUDE": 101.6244456, "GEOM_OK": true }, "geometry": { "type": "Point", "coordinates": [ 101.62444563466147, 3.132483734259222 ] } },
{ "type": "Feature", "properties": { "UID": "PDRM-094", "AGENSI": "PDRM", "KATEGORI": "BALAI POLIS", "HIERARKI": "BALAI/UNIT", "NAMA": "Balai Polis Sea Park", "UNIT": "PENGURUSAN", "INDUK": "IPD Petaling Jaya", "ZON": null, "DAERAH": null, "PBT": null, "ALAMAT": null, "TELEFON": null, "SRC_ID": "94", "X_CASS": -8816.61, "Y_CASS": -6240.09, "LATITUDE": 3.1175659, "LONGITUDE": 101.6231896, "GEOM_OK": true }, "geometry": { "type": "Point", "coordinates": [ 101.623189634953263, 3.117565905293835 ] } },
{ "type": "Feature", "properties": { "UID": "PDRM-010", "AGENSI": "PDRM", "KATEGORI": "IPD", "HIERARKI": "DAERAH", "NAMA": "IPD Petaling Jaya", "UNIT": "PENGURUSAN", "INDUK": "IPD Petaling Jaya", "ZON": null, "DAERAH": null, "PBT": null, "ALAMAT": "Jalan Pencala, 46050 Petaling Jaya, Selangor", "TELEFON": "03-79662222", "SRC_ID": "10", "X_CASS": -6696.125, "Y_CASS": -8312.123, "LATITUDE": 3.0988234, "LONGITUDE": 101.6422619, "GEOM_OK": true }, "geometry": { "type": "Point", "coordinates": [ 101.64226185623103, 3.098823367998177 ] } },
{ "type": "Feature", "properties": { "UID": "PDRM-091", "AGENSI": "PDRM", "KATEGORI": "BALAI POLIS", "HIERARKI": "BALAI/UNIT", "NAMA": "Balai Polis Petaling Jaya", "UNIT": "PENGURUSAN", "INDUK": "IPD Petaling Jaya", "ZON": null, "DAERAH": null, "PBT": null, "ALAMAT": null, "TELEFON": null, "SRC_ID": "91", "X_CASS": -6696.125, "Y_CASS": -8312.123, "LATITUDE": 3.0988234, "LONGITUDE": 101.6422619, "GEOM_OK": true }, "geometry": { "type": "Point", "coordinates": [ 101.64226185623103, 3.098823367998177 ] } },
{ "type": "Feature", "properties": { "UID": "PDRM-095", "AGENSI": "PDRM", "KATEGORI": "BALAI POLIS", "HIERARKI": "BALAI/UNIT", "NAMA": "Balai Polis Sungai Way", "UNIT": "PENGURUSAN", "INDUK": "IPD Petaling Jaya", "ZON": null, "DAERAH": null, "PBT": null, "ALAMAT": null, "TELEFON": null, "SRC_ID": "95", "X_CASS": -9043.24, "Y_CASS": -9600.419, "LATITUDE": 3.0871777, "LONGITUDE": 101.6211442, "GEOM_OK": true }, "geometry": { "type": "Point", "coordinates": [ 101.621144165293401, 3.08717770832149 ] } },
{ "type": "Feature", "properties": { "UID": "PDRM-093", "AGENSI": "PDRM", "KATEGORI": "BALAI POLIS", "HIERARKI": "BALAI/UNIT", "NAMA": "Balai Polis Kelana Jaya", "UNIT": "PENGURUSAN", "INDUK": "IPD Petaling Jaya", "ZON": null, "DAERAH": null, "PBT": null, "ALAMAT": null, "TELEFON": null, "SRC_ID": "93", "X_CASS": -11372.693, "Y_CASS": -8088.489, "LATITUDE": 3.100855, "LONGITUDE": 101.6001908, "GEOM_OK": true }, "geometry": { "type": "Point", "coordinates": [ 101.600190822082709, 3.100855035919524 ] } },
{ "type": "Feature", "properties": { "UID": "PDRM-097", "AGENSI": "PDRM", "KATEGORI": "BALAI POLIS", "HIERARKI": "BALAI/UNIT", "NAMA": "Balai Polis Ara Damansara", "UNIT": "PENGURUSAN", "INDUK": "IPD Petaling Jaya", "ZON": null, "DAERAH": null, "PBT": null, "ALAMAT": null, "TELEFON": null, "SRC_ID": "97", "X_CASS": -13062.731, "Y_CASS": -6328.816, "LATITUDE": 3.1167714, "LONGITUDE": 101.5849898, "GEOM_OK": true }, "geometry": { "type": "Point", "coordinates": [ 101.584989777330932, 3.116771352001227 ] } },
{ "type": "Feature", "properties": { "UID": "PDRM-139", "AGENSI": "PDRM", "KATEGORI": "BALAI POLIS", "HIERARKI": "BALAI/UNIT", "NAMA": "Balai Polis Bukit Jelutong", "UNIT": "PENGURUSAN", "INDUK": "IPD Shah Alam", "ZON": null, "DAERAH": null, "PBT": null, "ALAMAT": null, "TELEFON": null, "SRC_ID": "139", "X_CASS": -16623.296, "Y_CASS": -6899.204, "LATITUDE": 3.1116186, "LONGITUDE": 101.5529568, "GEOM_OK": true }, "geometry": { "type": "Point", "coordinates": [ 101.552956813414283, 3.111618607453365 ] } },
{ "type": "Feature", "properties": { "UID": "PDRM-100", "AGENSI": "PDRM", "KATEGORI": "BALAI LAPANGAN TERBANG", "HIERARKI": "BALAI/UNIT", "NAMA": "Balai Polis LTSAAS", "UNIT": "PENGURUSAN", "INDUK": "IPD Petaling Jaya", "ZON": null, "DAERAH": null, "PBT": null, "ALAMAT": null, "TELEFON": null, "SRC_ID": "100", "X_CASS": -16570.512, "Y_CASS": -4449.28, "LATITUDE": 3.1337742, "LONGITUDE": 101.5534351, "GEOM_OK": true }, "geometry": { "type": "Point", "coordinates": [ 101.553435117803218, 3.133774152663106 ] } },
{ "type": "Feature", "properties": { "UID": "PDRM-159", "AGENSI": "PDRM", "KATEGORI": "BALAI POLIS", "HIERARKI": "BALAI/UNIT", "NAMA": "Balai Polis Kampung Baru Subang", "UNIT": "PENGURUSAN", "INDUK": "IPD Sungai Buloh", "ZON": null, "DAERAH": null, "PBT": null, "ALAMAT": null, "TELEFON": null, "SRC_ID": "159", "X_CASS": -18551.083, "Y_CASS": -3529.183, "LATITUDE": 3.1420976, "LONGITUDE": 101.535618, "GEOM_OK": true }, "geometry": { "type": "Point", "coordinates": [ 101.535618040000585, 3.142097605033729 ] } },
{ "type": "Feature", "properties": { "UID": "PDRM-147", "AGENSI": "PDRM", "KATEGORI": "PONDOK POLIS", "HIERARKI": "BALAI/UNIT", "NAMA": "Pondok Polis Komuniti U9 Cahaya SPK", "UNIT": "PENGURUSAN", "INDUK": "IPD Shah Alam", "ZON": null, "DAERAH": null, "PBT": null, "ALAMAT": null, "TELEFON": null, "SRC_ID": "147", "X_CASS": -21770.91, "Y_CASS": -3983.481, "LATITUDE": 3.1379929, "LONGITUDE": 101.5066501, "GEOM_OK": true }, "geometry": { "type": "Point", "coordinates": [ 101.506650124242128, 3.13799287838173 ] } },
{ "type": "Feature", "properties": { "UID": "PDRM-141", "AGENSI": "PDRM", "KATEGORI": "BALAI KOMUNITI", "HIERARKI": "BALAI/UNIT", "NAMA": "Balai Polis Komuniti U13 Setia Alam", "UNIT": "JPJKK", "INDUK": "IPD Shah Alam", "ZON": null, "DAERAH": null, "PBT": null, "ALAMAT": null, "TELEFON": null, "SRC_ID": "141", "X_CASS": -27063.947, "Y_CASS": -4442.561, "LATITUDE": 3.1338455, "LONGITUDE": 101.4590308, "GEOM_OK": true }, "geometry": { "type": "Point", "coordinates": [ 101.459030768005817, 3.133845513956121 ] } },
{ "type": "Feature", "properties": { "UID": "PDRM-080", "AGENSI": "PDRM", "KATEGORI": "BALAI POLIS", "HIERARKI": "BALAI/UNIT", "NAMA": "Balai Polis Meru", "UNIT": "PENGURUSAN", "INDUK": "IPD Klang Utara", "ZON": null, "DAERAH": null, "PBT": null, "ALAMAT": null, "TELEFON": null, "SRC_ID": "80", "X_CASS": -29118.628, "Y_CASS": -4333.669, "LATITUDE": 3.1348314, "LONGITUDE": 101.4405458, "GEOM_OK": true }, "geometry": { "type": "Point", "coordinates": [ 101.440545847682131, 3.134831351705579 ] } },
{ "type": "Feature", "properties": { "UID": "PDRM-076", "AGENSI": "PDRM", "KATEGORI": "BALAI POLIS", "HIERARKI": "BALAI/UNIT", "NAMA": "Balai Polis Kapar", "UNIT": "PENGURUSAN", "INDUK": "IPD Klang Utara", "ZON": null, "DAERAH": null, "PBT": null, "ALAMAT": null, "TELEFON": null, "SRC_ID": "76", "X_CASS": -36269.266, "Y_CASS": -4019.14, "LATITUDE": 3.137677, "LONGITUDE": 101.3762149, "GEOM_OK": true }, "geometry": { "type": "Point", "coordinates": [ 101.376214915667319, 3.137676953728418 ] } },
{ "type": "Feature", "properties": { "UID": "PDRM-008", "AGENSI": "PDRM", "KATEGORI": "IPD", "HIERARKI": "DAERAH", "NAMA": "IPD Klang Utara", "UNIT": "PENGURUSAN", "INDUK": "IPD Klang Utara", "ZON": null, "DAERAH": null, "PBT": null, "ALAMAT": "Jalan Harapan 3A/KU7, Taman Sungai Kapar Indah, 42200 Kapar, Klang", "TELEFON": "03-32912222", "SRC_ID": "8", "X_CASS": -36236.117, "Y_CASS": -8496.22, "LATITUDE": 3.0971888, "LONGITUDE": 101.3765136, "GEOM_OK": true }, "geometry": { "type": "Point", "coordinates": [ 101.376513619111023, 3.097188818425233 ] } },
{ "type": "Feature", "properties": { "UID": "PDRM-079", "AGENSI": "PDRM", "KATEGORI": "BALAI POLIS", "HIERARKI": "BALAI/UNIT", "NAMA": "Balai Polis Sungai Kapar Indah", "UNIT": "PENGURUSAN", "INDUK": "IPD Klang Utara", "ZON": null, "DAERAH": null, "PBT": null, "ALAMAT": null, "TELEFON": null, "SRC_ID": "79", "X_CASS": -36236.117, "Y_CASS": -8496.22, "LATITUDE": 3.0971888, "LONGITUDE": 101.3765136, "GEOM_OK": true }, "geometry": { "type": "Point", "coordinates": [ 101.376513619111023, 3.097188818425233 ] } },
{ "type": "Feature", "properties": { "UID": "PDRM-077", "AGENSI": "PDRM", "KATEGORI": "BALAI POLIS", "HIERARKI": "BALAI/UNIT", "NAMA": "Balai Polis Bukit Raja", "UNIT": "PENGURUSAN", "INDUK": "IPD Klang Utara", "ZON": null, "DAERAH": null, "PBT": null, "ALAMAT": null, "TELEFON": null, "SRC_ID": "77", "X_CASS": -30444.935, "Y_CASS": -10564.962, "LATITUDE": 3.0784796, "LONGITUDE": 101.4286116, "GEOM_OK": true }, "geometry": { "type": "Point", "coordinates": [ 101.428611594067661, 3.078479631669157 ] } },
{ "type": "Feature", "properties": { "UID": "PDRM-078", "AGENSI": "PDRM", "KATEGORI": "BALAI POLIS", "HIERARKI": "BALAI/UNIT", "NAMA": "Balai Polis Bandar Baru Klang", "UNIT": "PENGURUSAN", "INDUK": "IPD Klang Utara", "ZON": null, "DAERAH": null, "PBT": null, "ALAMAT": null, "TELEFON": null, "SRC_ID": "78", "X_CASS": -26182.088, "Y_CASS": -12271.433, "LATITUDE": 3.0630452, "LONGITUDE": 101.4669593, "GEOM_OK": true }, "geometry": { "type": "Point", "coordinates": [ 101.466959251073277, 3.063045168014432 ] } },
{ "type": "Feature", "properties": { "UID": "PDRM-136", "AGENSI": "PDRM", "KATEGORI": "BALAI POLIS", "HIERARKI": "BALAI/UNIT", "NAMA": "Balai Polis Seksyen 6", "UNIT": "PENGURUSAN", "INDUK": "IPD Shah Alam", "ZON": null, "DAERAH": null, "PBT": null, "ALAMAT": null, "TELEFON": null, "SRC_ID": "136", "X_CASS": -21611.086, "Y_CASS": -9921.682, "LATITUDE": 3.0842911, "LONGITUDE": 101.508082, "GEOM_OK": true }, "geometry": { "type": "Point", "coordinates": [ 101.508081970133674, 3.084291147347357 ] } },
{ "type": "Feature", "properties": { "UID": "PDRM-001", "AGENSI": "PDRM", "KATEGORI": "IPK", "HIERARKI": "KONTINJEN", "NAMA": "Ibu Pejabat Polis Kontinjen Selangor", "UNIT": "PENGURUSAN", "INDUK": "IPK SELANGOR", "ZON": null, "DAERAH": null, "PBT": null, "ALAMAT": "Persiaran Kayangan, Seksyen 9, 40000 Shah Alam, Selangor", "TELEFON": "03-55145222", "SRC_ID": "1", "X_CASS": -20320.85, "Y_CASS": -9532.663, "LATITUDE": 3.0878078, "LONGITUDE": 101.5196895, "GEOM_OK": true }, "geometry": { "type": "Point", "coordinates": [ 101.519689487809501, 3.087807840355754 ] } },
{ "type": "Feature", "properties": { "UID": "PDRM-014", "AGENSI": "PDRM", "KATEGORI": "IPD", "HIERARKI": "DAERAH", "NAMA": "IPD Shah Alam", "UNIT": "PENGURUSAN", "INDUK": "IPD Shah Alam", "ZON": null, "DAERAH": null, "PBT": null, "ALAMAT": "Persiaran Kayangan, Seksyen 9, 40100 Shah Alam, Selangor", "TELEFON": "03-55202222", "SRC_ID": "14", "X_CASS": -20320.85, "Y_CASS": -9532.663, "LATITUDE": 3.0878078, "LONGITUDE": 101.5196895, "GEOM_OK": true }, "geometry": { "type": "Point", "coordinates": [ 101.519689487809501, 3.087807840355754 ] } },
{ "type": "Feature", "properties": { "UID": "PDRM-137", "AGENSI": "PDRM", "KATEGORI": "BALAI POLIS", "HIERARKI": "BALAI/UNIT", "NAMA": "Balai Polis Seksyen 9", "UNIT": "PENGURUSAN", "INDUK": "IPD Shah Alam", "ZON": null, "DAERAH": null, "PBT": null, "ALAMAT": null, "TELEFON": null, "SRC_ID": "137", "X_CASS": -20320.85, "Y_CASS": -9532.663, "LATITUDE": 3.0878078, "LONGITUDE": 101.5196895, "GEOM_OK": true }, "geometry": { "type": "Point", "coordinates": [ 101.519689487809501, 3.087807840355754 ] } },
{ "type": "Feature", "properties": { "UID": "PDRM-152", "AGENSI": "PDRM", "KATEGORI": "BALAI POLIS", "HIERARKI": "BALAI/UNIT", "NAMA": "Balai Polis SS17", "UNIT": "PENGURUSAN", "INDUK": "IPD Subang Jaya", "ZON": null, "DAERAH": null, "PBT": null, "ALAMAT": null, "TELEFON": null, "SRC_ID": "152", "X_CASS": -13036.285, "Y_CASS": -11054.921, "LATITUDE": 3.0740314, "LONGITUDE": 101.5852198, "GEOM_OK": true }, "geometry": { "type": "Point", "coordinates": [ 101.585219841131931, 3.074031364027543 ] } },
{ "type": "Feature", "properties": { "UID": "PDRM-153", "AGENSI": "PDRM", "KATEGORI": "BALAI POLIS", "HIERARKI": "BALAI/UNIT", "NAMA": "Balai Polis Bandar Sunway", "UNIT": "PENGURUSAN", "INDUK": "IPD Subang Jaya", "ZON": null, "DAERAH": null, "PBT": null, "ALAMAT": null, "TELEFON": null, "SRC_ID": "153", "X_CASS": -10368.849, "Y_CASS": -11096.221, "LATITUDE": 3.0736532, "LONGITUDE": 101.609216, "GEOM_OK": true }, "geometry": { "type": "Point", "coordinates": [ 101.60921604025819, 3.073653176707122 ] } },
{ "type": "Feature", "properties": { "UID": "PDRM-015", "AGENSI": "PDRM", "KATEGORI": "IPD", "HIERARKI": "DAERAH", "NAMA": "IPD Subang Jaya", "UNIT": "PENGURUSAN", "INDUK": "IPD Subang Jaya", "ZON": null, "DAERAH": null, "PBT": null, "ALAMAT": "Subang Jaya, Selangor", "TELEFON": null, "SRC_ID": "15", "X_CASS": -12584.997, "Y_CASS": -14241.757, "LATITUDE": 3.0452108, "LONGITUDE": 101.5892743, "GEOM_OK": true }, "geometry": { "type": "Point", "coordinates": [ 101.589274285614223, 3.045210834297055 ] } },
{ "type": "Feature", "properties": { "UID": "PDRM-149", "AGENSI": "PDRM", "KATEGORI": "BALAI POLIS", "HIERARKI": "BALAI/UNIT", "NAMA": "Balai Polis Subang Jaya", "UNIT": "PENGURUSAN", "INDUK": "IPD Subang Jaya", "ZON": null, "DAERAH": null, "PBT": null, "ALAMAT": null, "TELEFON": null, "SRC_ID": "149", "X_CASS": -12584.997, "Y_CASS": -14241.757, "LATITUDE": 3.0452108, "LONGITUDE": 101.5892743, "GEOM_OK": true }, "geometry": { "type": "Point", "coordinates": [ 101.589274285614223, 3.045210834297055 ] } },
{ "type": "Feature", "properties": { "UID": "PDRM-150", "AGENSI": "PDRM", "KATEGORI": "BALAI POLIS", "HIERARKI": "BALAI/UNIT", "NAMA": "Balai Polis USJ 8", "UNIT": "PENGURUSAN", "INDUK": "IPD Subang Jaya", "ZON": null, "DAERAH": null, "PBT": null, "ALAMAT": null, "TELEFON": null, "SRC_ID": "150", "X_CASS": -12584.997, "Y_CASS": -14241.757, "LATITUDE": 3.0452108, "LONGITUDE": 101.5892743, "GEOM_OK": true }, "geometry": { "type": "Point", "coordinates": [ 101.589274285614223, 3.045210834297055 ] } },
{ "type": "Feature", "properties": { "UID": "PDRM-132", "AGENSI": "PDRM", "KATEGORI": "BALAI KOMUNITI", "HIERARKI": "BALAI/UNIT", "NAMA": "Balai Polis Komuniti Sungai Besi Indah", "UNIT": "JPJKK", "INDUK": "IPD Serdang", "ZON": null, "DAERAH": null, "PBT": null, "ALAMAT": null, "TELEFON": null, "SRC_ID": "132", "X_CASS": 2604.695, "Y_CASS": -16206.148, "LATITUDE": 3.0274121, "LONGITUDE": 101.7259118, "GEOM_OK": true }, "geometry": { "type": "Point", "coordinates": [ 101.725911764217031, 3.027412099215227 ] } },
{ "type": "Feature", "properties": { "UID": "PDRM-130", "AGENSI": "PDRM", "KATEGORI": "BALAI POLIS", "HIERARKI": "BALAI/UNIT", "NAMA": "Balai Polis Sri Kembangan", "UNIT": "PENGURUSAN", "INDUK": "IPD Serdang", "ZON": null, "DAERAH": null, "PBT": null, "ALAMAT": null, "TELEFON": null, "SRC_ID": "130", "X_CASS": 767.625, "Y_CASS": -16663.312, "LATITUDE": 3.0232829, "LONGITUDE": 101.709385, "GEOM_OK": true }, "geometry": { "type": "Point", "coordinates": [ 101.709384955102536, 3.023282855323181 ] } },
{ "type": "Feature", "properties": { "UID": "PDRM-133", "AGENSI": "PDRM", "KATEGORI": "BALAI POLIS", "HIERARKI": "BALAI/UNIT", "NAMA": "Balai Polis Bukit Serdang", "UNIT": "PENGURUSAN", "INDUK": "IPD Serdang", "ZON": null, "DAERAH": null, "PBT": null, "ALAMAT": null, "TELEFON": null, "SRC_ID": "133", "X_CASS": -723.254, "Y_CASS": -16762.301, "LATITUDE": 3.0223916, "LONGITUDE": 101.6959734, "GEOM_OK": true }, "geometry": { "type": "Point", "coordinates": [ 101.695973373092741, 3.022391559406671 ] } },
{ "type": "Feature", "properties": { "UID": "PDRM-061", "AGENSI": "PDRM", "KATEGORI": "BALAI POLIS", "HIERARKI": "BALAI/UNIT", "NAMA": "Balai Polis Sungai Long", "UNIT": "PENGURUSAN", "INDUK": "IPD Kajang", "ZON": null, "DAERAH": null, "PBT": null, "ALAMAT": null, "TELEFON": null, "SRC_ID": "61", "X_CASS": 9851.832, "Y_CASS": -14610.36, "LATITUDE": 3.0418208, "LONGITUDE": 101.7911096, "GEOM_OK": true }, "geometry": { "type": "Point", "coordinates": [ 101.791109602396119, 3.041820835339536 ] } },
{ "type": "Feature", "properties": { "UID": "PDRM-129", "AGENSI": "PDRM", "KATEGORI": "BALAI POLIS", "HIERARKI": "BALAI/UNIT", "NAMA": "Balai Polis Serdang", "UNIT": "PENGURUSAN", "INDUK": "IPD Serdang", "ZON": null, "DAERAH": null, "PBT": null, "ALAMAT": null, "TELEFON": null, "SRC_ID": "129", "X_CASS": 1377.798, "Y_CASS": -18351.543, "LATITUDE": 3.008014, "LONGITUDE": 101.7148693, "GEOM_OK": true }, "geometry": { "type": "Point", "coordinates": [ 101.714869277295008, 3.008014040758774 ] } },
{ "type": "Feature", "properties": { "UID": "PDRM-013", "AGENSI": "PDRM", "KATEGORI": "IPD", "HIERARKI": "DAERAH", "NAMA": "IPD Serdang", "UNIT": "PENGURUSAN", "INDUK": "IPD Serdang", "ZON": null, "DAERAH": null, "PBT": null, "ALAMAT": "Jalan Kinrara 6, Bandar Kinrara 6, 47180 Puchong, Selangor", "TELEFON": "03-80742222", "SRC_ID": "13", "X_CASS": -5719.512, "Y_CASS": -14994.622, "LATITUDE": 3.0383891, "LONGITUDE": 101.651033, "GEOM_OK": true }, "geometry": { "type": "Point", "coordinates": [ 101.65103297001086, 3.03838911409758 ] } },
{ "type": "Feature", "properties": { "UID": "PDRM-127", "AGENSI": "PDRM", "KATEGORI": "BALAI POLIS", "HIERARKI": "BALAI/UNIT", "NAMA": "Balai Polis Bandar Kinrara", "UNIT": "PENGURUSAN", "INDUK": "IPD Serdang", "ZON": null, "DAERAH": null, "PBT": null, "ALAMAT": null, "TELEFON": null, "SRC_ID": "127", "X_CASS": -5719.512, "Y_CASS": -14994.622, "LATITUDE": 3.0383891, "LONGITUDE": 101.651033, "GEOM_OK": true }, "geometry": { "type": "Point", "coordinates": [ 101.65103297001086, 3.03838911409758 ] } },
{ "type": "Feature", "properties": { "UID": "PDRM-131", "AGENSI": "PDRM", "KATEGORI": "BALAI KOMUNITI", "HIERARKI": "BALAI/UNIT", "NAMA": "Balai Polis Komuniti Bandar Puteri", "UNIT": "JPJKK", "INDUK": "IPD Serdang", "ZON": null, "DAERAH": null, "PBT": null, "ALAMAT": null, "TELEFON": null, "SRC_ID": "131", "X_CASS": -8764.89, "Y_CASS": -16351.911, "LATITUDE": 3.026121, "LONGITUDE": 101.623635, "GEOM_OK": true }, "geometry": { "type": "Point", "coordinates": [ 101.623634976454753, 3.026120981324573 ] } },
{ "type": "Feature", "properties": { "UID": "PDRM-151", "AGENSI": "PDRM", "KATEGORI": "BALAI POLIS", "HIERARKI": "BALAI/UNIT", "NAMA": "Balai Polis Putra Heights", "UNIT": "PENGURUSAN", "INDUK": "IPD Subang Jaya", "ZON": null, "DAERAH": null, "PBT": null, "ALAMAT": null, "TELEFON": null, "SRC_ID": "151", "X_CASS": -14576.924, "Y_CASS": -19220.655, "LATITUDE": 3.0001879, "LONGITUDE": 101.5713478, "GEOM_OK": true }, "geometry": { "type": "Point", "coordinates": [ 101.571347849314151, 3.000187879916473 ] } },
{ "type": "Feature", "properties": { "UID": "PDRM-145", "AGENSI": "PDRM", "KATEGORI": "PONDOK POLIS", "HIERARKI": "BALAI/UNIT", "NAMA": "Pondok Polis Kota Kemuning", "UNIT": "PENGURUSAN", "INDUK": "IPD Shah Alam", "ZON": null, "DAERAH": null, "PBT": null, "ALAMAT": null, "TELEFON": null, "SRC_ID": "145", "X_CASS": -17204.278, "Y_CASS": -20192.986, "LATITUDE": 2.9913984, "LONGITUDE": 101.5477125, "GEOM_OK": true }, "geometry": { "type": "Point", "coordinates": [ 101.547712487383407, 2.991398395236474 ] } },
{ "type": "Feature", "properties": { "UID": "PDRM-146", "AGENSI": "PDRM", "KATEGORI": "PONDOK POLIS", "HIERARKI": "BALAI/UNIT", "NAMA": "Pondok Polis Taman Berjaya", "UNIT": "PENGURUSAN", "INDUK": "IPD Shah Alam", "ZON": null, "DAERAH": null, "PBT": null, "ALAMAT": null, "TELEFON": null, "SRC_ID": "146", "X_CASS": -21033.715, "Y_CASS": -21148.497, "LATITUDE": 2.9827618, "LONGITUDE": 101.5132645, "GEOM_OK": true }, "geometry": { "type": "Point", "coordinates": [ 101.513264475653102, 2.982761757330423 ] } },
{ "type": "Feature", "properties": { "UID": "PDRM-067", "AGENSI": "PDRM", "KATEGORI": "BALAI POLIS", "HIERARKI": "BALAI/UNIT", "NAMA": "Balai Polis Pulau Ketam", "UNIT": "PENGURUSAN", "INDUK": "IPD Klang Selatan", "ZON": null, "DAERAH": null, "PBT": null, "ALAMAT": null, "TELEFON": null, "SRC_ID": "67", "X_CASS": -49910.416, "Y_CASS": -17021.028, "LATITUDE": 3.0200868, "LONGITUDE": 101.2535065, "GEOM_OK": true }, "geometry": { "type": "Point", "coordinates": [ 101.253506504382742, 3.020086837048436 ] } },
{ "type": "Feature", "properties": { "UID": "PDRM-072", "AGENSI": "PDRM", "KATEGORI": "BALAI POLIS MARIN", "HIERARKI": "BALAI/UNIT", "NAMA": "Balai Polis Pulau Indah", "UNIT": "KDNKA", "INDUK": "IPD Klang Selatan", "ZON": null, "DAERAH": null, "PBT": null, "ALAMAT": null, "TELEFON": null, "SRC_ID": "72", "X_CASS": -43422.485, "Y_CASS": -24469.195, "LATITUDE": 2.9527355, "LONGITUDE": 101.3118738, "GEOM_OK": true }, "geometry": { "type": "Point", "coordinates": [ 101.31187379564831, 2.952735528029172 ] } },
{ "type": "Feature", "properties": { "UID": "PDRM-069", "AGENSI": "PDRM", "KATEGORI": "BALAI POLIS", "HIERARKI": "BALAI/UNIT", "NAMA": "Balai Polis Telok Gong", "UNIT": "PENGURUSAN", "INDUK": "IPD Klang Selatan", "ZON": null, "DAERAH": null, "PBT": null, "ALAMAT": null, "TELEFON": null, "SRC_ID": "69", "X_CASS": -34630.777, "Y_CASS": -23291.752, "LATITUDE": 2.9633864, "LONGITUDE": 101.3909554, "GEOM_OK": true }, "geometry": { "type": "Point", "coordinates": [ 101.3909553627348, 2.963386374127058 ] } },
{ "type": "Feature", "properties": { "UID": "PDRM-068", "AGENSI": "PDRM", "KATEGORI": "BALAI POLIS", "HIERARKI": "BALAI/UNIT", "NAMA": "Balai Polis Pelabuhan Klang", "UNIT": "PENGURUSAN", "INDUK": "IPD Klang Selatan", "ZON": null, "DAERAH": null, "PBT": null, "ALAMAT": null, "TELEFON": null, "SRC_ID": "68", "X_CASS": -34466.379, "Y_CASS": -19239.556, "LATITUDE": 3.0000322, "LONGITUDE": 101.3924343, "GEOM_OK": true }, "geometry": { "type": "Point", "coordinates": [ 101.392434253171629, 3.000032198521946 ] } },
{ "type": "Feature", "properties": { "UID": "PDRM-066", "AGENSI": "PDRM", "KATEGORI": "BALAI POLIS", "HIERARKI": "BALAI/UNIT", "NAMA": "Balai Polis Pandamaran", "UNIT": "PENGURUSAN", "INDUK": "IPD Klang Selatan", "ZON": null, "DAERAH": null, "PBT": null, "ALAMAT": null, "TELEFON": null, "SRC_ID": "66", "X_CASS": -31957.867, "Y_CASS": -18279.759, "LATITUDE": 3.0087118, "LONGITUDE": 101.4149995, "GEOM_OK": true }, "geometry": { "type": "Point", "coordinates": [ 101.414999519111745, 3.008711765787656 ] } },
{ "type": "Feature", "properties": { "UID": "PDRM-071", "AGENSI": "PDRM", "KATEGORI": "BALAI POLIS", "HIERARKI": "BALAI/UNIT", "NAMA": "Balai Polis Bukit Tinggi", "UNIT": "PENGURUSAN", "INDUK": "IPD Klang Selatan", "ZON": null, "DAERAH": null, "PBT": null, "ALAMAT": null, "TELEFON": null, "SRC_ID": "71", "X_CASS": -30375.843, "Y_CASS": -19958.02, "LATITUDE": 2.9935341, "LONGITUDE": 101.42923, "GEOM_OK": true }, "geometry": { "type": "Point", "coordinates": [ 101.429230014455968, 2.993534076523011 ] } },
{ "type": "Feature", "properties": { "UID": "PDRM-074", "AGENSI": "PDRM", "KATEGORI": "PONDOK POLIS", "HIERARKI": "BALAI/UNIT", "NAMA": "Pondok Polis Hospital Tengku Ampuan Rahimah", "UNIT": "PENGURUSAN", "INDUK": "IPD Klang Selatan", "ZON": null, "DAERAH": null, "PBT": null, "ALAMAT": null, "TELEFON": null, "SRC_ID": "74", "X_CASS": -29182.058, "Y_CASS": -16996.324, "LATITUDE": 3.0203175, "LONGITUDE": 101.4399698, "GEOM_OK": true }, "geometry": { "type": "Point", "coordinates": [ 101.439969762588859, 3.020317546840795 ] } },
{ "type": "Feature", "properties": { "UID": "PDRM-073", "AGENSI": "PDRM", "KATEGORI": "POS PENGAWAL", "HIERARKI": "BALAI/UNIT", "NAMA": "Pos Pengawal Istana Alam Shah", "UNIT": "PENGURUSAN", "INDUK": "IPD Klang Selatan", "ZON": null, "DAERAH": null, "PBT": null, "ALAMAT": null, "TELEFON": null, "SRC_ID": "73", "X_CASS": -28295.446, "Y_CASS": -15231.952, "LATITUDE": 3.0362731, "LONGITUDE": 101.4479462, "GEOM_OK": true }, "geometry": { "type": "Point", "coordinates": [ 101.447946199674988, 3.03627313047042 ] } },
{ "type": "Feature", "properties": { "UID": "PDRM-007", "AGENSI": "PDRM", "KATEGORI": "IPD", "HIERARKI": "DAERAH", "NAMA": "IPD Klang Selatan", "UNIT": "PENGURUSAN", "INDUK": "IPD Klang Selatan", "ZON": null, "DAERAH": null, "PBT": null, "ALAMAT": "Jalan Gedung Raja Abdullah, 41560 Klang, Selangor", "TELEFON": "03-33762222", "SRC_ID": "7", "X_CASS": -28380.208, "Y_CASS": -14397.824, "LATITUDE": 3.0438166, "LONGITUDE": 101.4471841, "GEOM_OK": true }, "geometry": { "type": "Point", "coordinates": [ 101.447184111810913, 3.043816553891248 ] } },
{ "type": "Feature", "properties": { "UID": "PDRM-065", "AGENSI": "PDRM", "KATEGORI": "BALAI POLIS", "HIERARKI": "BALAI/UNIT", "NAMA": "Balai Polis Klang", "UNIT": "PENGURUSAN", "INDUK": "IPD Klang Selatan", "ZON": null, "DAERAH": null, "PBT": null, "ALAMAT": null, "TELEFON": null, "SRC_ID": "65", "X_CASS": -28404.863, "Y_CASS": -14490.466, "LATITUDE": 3.0429788, "LONGITUDE": 101.4469623, "GEOM_OK": true }, "geometry": { "type": "Point", "coordinates": [ 101.446962278655008, 3.042978766891799 ] } },
{ "type": "Feature", "properties": { "UID": "PDRM-138", "AGENSI": "PDRM", "KATEGORI": "BALAI KOMUNITI", "HIERARKI": "BALAI/UNIT", "NAMA": "Balai Polis Komuniti Seksyen 15", "UNIT": "JPJKK", "INDUK": "IPD Shah Alam", "ZON": null, "DAERAH": null, "PBT": null, "ALAMAT": null, "TELEFON": null, "SRC_ID": "138", "X_CASS": -20233.647, "Y_CASS": -12713.847, "LATITUDE": 3.059039, "LONGITUDE": 101.5204705, "GEOM_OK": true }, "geometry": { "type": "Point", "coordinates": [ 101.520470462287292, 3.05903899096246 ] } },
{ "type": "Feature", "properties": { "UID": "PDRM-070", "AGENSI": "PDRM", "KATEGORI": "BALAI POLIS", "HIERARKI": "BALAI/UNIT", "NAMA": "Balai Polis Taman Sentosa", "UNIT": "PENGURUSAN", "INDUK": "IPD Klang Selatan", "ZON": null, "DAERAH": null, "PBT": null, "ALAMAT": null, "TELEFON": null, "SRC_ID": "70", "X_CASS": -24906.926, "Y_CASS": -18424.885, "LATITUDE": 3.007396, "LONGITUDE": 101.4784259, "GEOM_OK": true }, "geometry": { "type": "Point", "coordinates": [ 101.478425936215658, 3.007395960420971 ] } },
{ "type": "Feature", "properties": { "UID": "PDRM-144", "AGENSI": "PDRM", "KATEGORI": "BALAI KOMUNITI", "HIERARKI": "BALAI/UNIT", "NAMA": "Balai Polis Komuniti Alam Impian", "UNIT": "JPJKK", "INDUK": "IPD Shah Alam", "ZON": null, "DAERAH": null, "PBT": null, "ALAMAT": null, "TELEFON": null, "SRC_ID": "144", "X_CASS": -20970.105, "Y_CASS": -17463.765, "LATITUDE": 3.0160843, "LONGITUDE": 101.5138404, "GEOM_OK": true }, "geometry": { "type": "Point", "coordinates": [ 101.51384044020665, 3.016084291089252 ] } },
{ "type": "Feature", "properties": { "UID": "PDRM-142", "AGENSI": "PDRM", "KATEGORI": "BALAI POLIS", "HIERARKI": "BALAI/UNIT", "NAMA": "Balai Polis Taman Sri Muda", "UNIT": "PENGURUSAN", "INDUK": "IPD Shah Alam", "ZON": null, "DAERAH": null, "PBT": null, "ALAMAT": null, "TELEFON": null, "SRC_ID": "142", "X_CASS": -18275.379, "Y_CASS": -15650.74, "LATITUDE": 3.0324772, "LONGITUDE": 101.5380832, "GEOM_OK": true }, "geometry": { "type": "Point", "coordinates": [ 101.538083161628606, 3.032477152405998 ] } },
{ "type": "Feature", "properties": { "UID": "PDRM-111", "AGENSI": "PDRM", "KATEGORI": "BALAI POLIS", "HIERARKI": "BALAI/UNIT", "NAMA": "Balai Polis Sungai Pelek", "UNIT": "PENGURUSAN", "INDUK": "IPD Sepang", "ZON": null, "DAERAH": null, "PBT": null, "ALAMAT": null, "TELEFON": null, "SRC_ID": "111", "X_CASS": 1345.344, "Y_CASS": -59048.745, "LATITUDE": 2.639976, "LONGITUDE": 101.7144749, "GEOM_OK": true }, "geometry": { "type": "Point", "coordinates": [ 101.714474917683006, 2.639976014997599 ] } },
{ "type": "Feature", "properties": { "UID": "PDRM-109", "AGENSI": "PDRM", "KATEGORI": "BALAI POLIS", "HIERARKI": "BALAI/UNIT", "NAMA": "Balai Polis Sepang", "UNIT": "PENGURUSAN", "INDUK": "IPD Sepang", "ZON": null, "DAERAH": null, "PBT": null, "ALAMAT": null, "TELEFON": null, "SRC_ID": "109", "X_CASS": 5396.569, "Y_CASS": -53326.022, "LATITUDE": 2.6917183, "LONGITUDE": 101.7509212, "GEOM_OK": true }, "geometry": { "type": "Point", "coordinates": [ 101.750921214594598, 2.691718296975634 ] } },
{ "type": "Feature", "properties": { "UID": "PDRM-042", "AGENSI": "PDRM", "KATEGORI": "BALAI POLIS", "HIERARKI": "BALAI/UNIT", "NAMA": "Balai Polis Tanjung Sepat", "UNIT": "PENGURUSAN", "INDUK": "IPD Kuala Langat", "ZON": null, "DAERAH": null, "PBT": null, "ALAMAT": null, "TELEFON": null, "SRC_ID": "42", "X_CASS": -16187.269, "Y_CASS": -56453.881, "LATITUDE": 2.663474, "LONGITUDE": 101.5568137, "GEOM_OK": true }, "geometry": { "type": "Point", "coordinates": [ 101.556813721737072, 2.663473994200414 ] } },
{ "type": "Feature", "properties": { "UID": "PDRM-045", "AGENSI": "PDRM", "KATEGORI": "PONDOK POLIS", "HIERARKI": "BALAI/UNIT", "NAMA": "Pondok Polis Batu Laut", "UNIT": "PENGURUSAN", "INDUK": "IPD Kuala Langat", "ZON": null, "DAERAH": null, "PBT": null, "ALAMAT": null, "TELEFON": null, "SRC_ID": "45", "X_CASS": -21851.183, "Y_CASS": -54741.076, "LATITUDE": 2.6789696, "LONGITUDE": 101.5058807, "GEOM_OK": true }, "geometry": { "type": "Point", "coordinates": [ 101.505880723018279, 2.678969621861187 ] } },
{ "type": "Feature", "properties": { "UID": "PDRM-117", "AGENSI": "PDRM", "KATEGORI": "BALAI LAPANGAN TERBANG", "HIERARKI": "BALAI/UNIT", "NAMA": "Balai Polis KLIA 2", "UNIT": "PENGURUSAN", "INDUK": "IPD Sepang", "ZON": null, "DAERAH": null, "PBT": null, "ALAMAT": null, "TELEFON": null, "SRC_ID": "117", "X_CASS": -1944.875, "Y_CASS": -47497.841, "LATITUDE": 2.7444426, "LONGITUDE": 101.6849124, "GEOM_OK": true }, "geometry": { "type": "Point", "coordinates": [ 101.684912377199296, 2.744442584613942 ] } },
{ "type": "Feature", "properties": { "UID": "PDRM-119", "AGENSI": "PDRM", "KATEGORI": "PONDOK POLIS", "HIERARKI": "BALAI/UNIT", "NAMA": "Pondok Polis KLIA 2", "UNIT": "PENGURUSAN", "INDUK": "IPD Sepang", "ZON": null, "DAERAH": null, "PBT": null, "ALAMAT": null, "TELEFON": null, "SRC_ID": "119", "X_CASS": -1944.875, "Y_CASS": -47497.841, "LATITUDE": 2.7444426, "LONGITUDE": 101.6849124, "GEOM_OK": true }, "geometry": { "type": "Point", "coordinates": [ 101.684912377199296, 2.744442584613942 ] } },
{ "type": "Feature", "properties": { "UID": "PDRM-118", "AGENSI": "PDRM", "KATEGORI": "PONDOK POLIS", "HIERARKI": "BALAI/UNIT", "NAMA": "Pondok Polis KLIA", "UNIT": "PENGURUSAN", "INDUK": "IPD Sepang", "ZON": null, "DAERAH": null, "PBT": null, "ALAMAT": null, "TELEFON": null, "SRC_ID": "118", "X_CASS": 299.321, "Y_CASS": -46262.625, "LATITUDE": 2.7556079, "LONGITUDE": 101.7050983, "GEOM_OK": true }, "geometry": { "type": "Point", "coordinates": [ 101.705098266441411, 2.75560787677463 ] } },
{ "type": "Feature", "properties": { "UID": "PDRM-120", "AGENSI": "PDRM", "KATEGORI": "PONDOK POLIS", "HIERARKI": "BALAI/UNIT", "NAMA": "Pondok Polis Pekan Salak", "UNIT": "PENGURUSAN", "INDUK": "IPD Sepang", "ZON": null, "DAERAH": null, "PBT": null, "ALAMAT": null, "TELEFON": null, "SRC_ID": "120", "X_CASS": 5327.554, "Y_CASS": -43377.2, "LATITUDE": 2.7816887, "LONGITUDE": 101.7503275, "GEOM_OK": true }, "geometry": { "type": "Point", "coordinates": [ 101.750327495226315, 2.781688728007528 ] } },
{ "type": "Feature", "properties": { "UID": "PDRM-012", "AGENSI": "PDRM", "KATEGORI": "IPD", "HIERARKI": "DAERAH", "NAMA": "IPD Sepang", "UNIT": "PENGURUSAN", "INDUK": "IPD Sepang", "ZON": null, "DAERAH": null, "PBT": null, "ALAMAT": "43900 Sepang, Selangor", "TELEFON": "03-87774222", "SRC_ID": "12", "X_CASS": 4241.357, "Y_CASS": -40749.7, "LATITUDE": 2.805453, "LONGITUDE": 101.7405657, "GEOM_OK": true }, "geometry": { "type": "Point", "coordinates": [ 101.740565653291156, 2.805452988485515 ] } },
{ "type": "Feature", "properties": { "UID": "PDRM-112", "AGENSI": "PDRM", "KATEGORI": "BALAI POLIS", "HIERARKI": "BALAI/UNIT", "NAMA": "Balai Polis Bandar Baru Salak Tinggi", "UNIT": "PENGURUSAN", "INDUK": "IPD Sepang", "ZON": null, "DAERAH": null, "PBT": null, "ALAMAT": null, "TELEFON": null, "SRC_ID": "112", "X_CASS": 4241.357, "Y_CASS": -40749.7, "LATITUDE": 2.805453, "LONGITUDE": 101.7405657, "GEOM_OK": true }, "geometry": { "type": "Point", "coordinates": [ 101.740565653291156, 2.805452988485515 ] } },
{ "type": "Feature", "properties": { "UID": "PDRM-116", "AGENSI": "PDRM", "KATEGORI": "BALAI LAPANGAN TERBANG", "HIERARKI": "BALAI/UNIT", "NAMA": "Balai Polis KLIA", "UNIT": "PENGURUSAN", "INDUK": "IPD Sepang", "ZON": null, "DAERAH": null, "PBT": null, "ALAMAT": null, "TELEFON": null, "SRC_ID": "116", "X_CASS": -2549.799, "Y_CASS": -42788.889, "LATITUDE": 2.7870287, "LONGITUDE": 101.6794824, "GEOM_OK": true }, "geometry": { "type": "Point", "coordinates": [ 101.679482410939372, 2.78702869903153 ] } },
{ "type": "Feature", "properties": { "UID": "PDRM-043", "AGENSI": "PDRM", "KATEGORI": "BALAI KOMUNITI", "HIERARKI": "BALAI/UNIT", "NAMA": "Balai Polis Komuniti Seri Ehsan", "UNIT": "JPJKK", "INDUK": "IPD Kuala Langat", "ZON": null, "DAERAH": null, "PBT": null, "ALAMAT": null, "TELEFON": null, "SRC_ID": "43", "X_CASS": -8006.119, "Y_CASS": -44674.706, "LATITUDE": 2.7699856, "LONGITUDE": 101.6304063, "GEOM_OK": true }, "geometry": { "type": "Point", "coordinates": [ 101.630406338958466, 2.769985631378294 ] } },
{ "type": "Feature", "properties": { "UID": "PDRM-004", "AGENSI": "PDRM", "KATEGORI": "IPD", "HIERARKI": "DAERAH", "NAMA": "IPD Kuala Langat", "UNIT": "PENGURUSAN", "INDUK": "IPD Kuala Langat", "ZON": null, "DAERAH": null, "PBT": null, "ALAMAT": "Jalan Sultan Alam Shah, 42700 Banting, Selangor", "TELEFON": "03-31872222", "SRC_ID": "4", "X_CASS": -23214.39, "Y_CASS": -40815.366, "LATITUDE": 2.8049075, "LONGITUDE": 101.4936324, "GEOM_OK": true }, "geometry": { "type": "Point", "coordinates": [ 101.493632445360348, 2.804907498874627 ] } },
{ "type": "Feature", "properties": { "UID": "PDRM-039", "AGENSI": "PDRM", "KATEGORI": "BALAI POLIS", "HIERARKI": "BALAI/UNIT", "NAMA": "Balai Polis Banting", "UNIT": "PENGURUSAN", "INDUK": "IPD Kuala Langat", "ZON": null, "DAERAH": null, "PBT": null, "ALAMAT": null, "TELEFON": null, "SRC_ID": "39", "X_CASS": -23214.39, "Y_CASS": -40815.366, "LATITUDE": 2.8049075, "LONGITUDE": 101.4936324, "GEOM_OK": true }, "geometry": { "type": "Point", "coordinates": [ 101.493632445360348, 2.804907498874627 ] } },
{ "type": "Feature", "properties": { "UID": "PDRM-110", "AGENSI": "PDRM", "KATEGORI": "BALAI POLIS", "HIERARKI": "BALAI/UNIT", "NAMA": "Balai Polis Dengkil", "UNIT": "PENGURUSAN", "INDUK": "IPD Sepang", "ZON": null, "DAERAH": null, "PBT": null, "ALAMAT": null, "TELEFON": null, "SRC_ID": "110", "X_CASS": -2542.493, "Y_CASS": -34785.258, "LATITUDE": 2.8594084, "LONGITUDE": 101.6795661, "GEOM_OK": true }, "geometry": { "type": "Point", "coordinates": [ 101.679566093896923, 2.859408378257623 ] } },
{ "type": "Feature", "properties": { "UID": "PDRM-059", "AGENSI": "PDRM", "KATEGORI": "BALAI POLIS", "HIERARKI": "BALAI/UNIT", "NAMA": "Balai Polis Beranang", "UNIT": "PENGURUSAN", "INDUK": "IPD Kajang", "ZON": null, "DAERAH": null, "PBT": null, "ALAMAT": null, "TELEFON": null, "SRC_ID": "59", "X_CASS": 18678.673, "Y_CASS": -33745.793, "LATITUDE": 2.8687439, "LONGITUDE": 101.870439, "GEOM_OK": true }, "geometry": { "type": "Point", "coordinates": [ 101.870439031705217, 2.868743932261049 ] } },
{ "type": "Feature", "properties": { "UID": "PDRM-058", "AGENSI": "PDRM", "KATEGORI": "BALAI POLIS", "HIERARKI": "BALAI/UNIT", "NAMA": "Balai Polis Semenyih", "UNIT": "PENGURUSAN", "INDUK": "IPD Kajang", "ZON": null, "DAERAH": null, "PBT": null, "ALAMAT": null, "TELEFON": null, "SRC_ID": "58", "X_CASS": 17071.916, "Y_CASS": -26550.744, "LATITUDE": 2.9338159, "LONGITUDE": 101.856014, "GEOM_OK": true }, "geometry": { "type": "Point", "coordinates": [ 101.856013993688563, 2.933815926382478 ] } },
{ "type": "Feature", "properties": { "UID": "PDRM-057", "AGENSI": "PDRM", "KATEGORI": "BALAI POLIS", "HIERARKI": "BALAI/UNIT", "NAMA": "Balai Polis Bandar Baru Bangi", "UNIT": "PENGURUSAN", "INDUK": "IPD Kajang", "ZON": null, "DAERAH": null, "PBT": null, "ALAMAT": null, "TELEFON": null, "SRC_ID": "57", "X_CASS": 6748.673, "Y_CASS": -26033.799, "LATITUDE": 2.9385259, "LONGITUDE": 101.7631594, "GEOM_OK": true }, "geometry": { "type": "Point", "coordinates": [ 101.763159387636989, 2.938525866914273 ] } },
{ "type": "Feature", "properties": { "UID": "PDRM-124", "AGENSI": "PDRM", "KATEGORI": "POS POLIS KOMUNITI", "HIERARKI": "BALAI/UNIT", "NAMA": "Pos Polis Komuniti Taman Desa Pinggiran Putra", "UNIT": "JPJKK", "INDUK": "IPD Sepang", "ZON": null, "DAERAH": null, "PBT": null, "ALAMAT": null, "TELEFON": null, "SRC_ID": "124", "X_CASS": 569.448, "Y_CASS": -29430.176, "LATITUDE": 2.9078287, "LONGITUDE": 101.7075692, "GEOM_OK": true }, "geometry": { "type": "Point", "coordinates": [ 101.707569218344574, 2.90782866502641 ] } },
{ "type": "Feature", "properties": { "UID": "PDRM-113", "AGENSI": "PDRM", "KATEGORI": "BALAI POLIS", "HIERARKI": "BALAI/UNIT", "NAMA": "Balai Polis Cyberjaya", "UNIT": "PENGURUSAN", "INDUK": "IPD Sepang", "ZON": null, "DAERAH": null, "PBT": null, "ALAMAT": null, "TELEFON": null, "SRC_ID": "113", "X_CASS": -5522.634, "Y_CASS": -29491.715, "LATITUDE": 2.9072863, "LONGITUDE": 101.6527729, "GEOM_OK": true }, "geometry": { "type": "Point", "coordinates": [ 101.652772901170891, 2.907286339431089 ] } },
{ "type": "Feature", "properties": { "UID": "PDRM-047", "AGENSI": "PDRM", "KATEGORI": "PONDOK POLIS", "HIERARKI": "BALAI/UNIT", "NAMA": "Pondok Polis Sri Cheding", "UNIT": "PENGURUSAN", "INDUK": "IPD Kuala Langat", "ZON": null, "DAERAH": null, "PBT": null, "ALAMAT": null, "TELEFON": null, "SRC_ID": "47", "X_CASS": -16770.812, "Y_CASS": -31545.535, "LATITUDE": 2.888732, "LONGITUDE": 101.5515968, "GEOM_OK": true }, "geometry": { "type": "Point", "coordinates": [ 101.55159680660293, 2.888731955605992 ] } },
{ "type": "Feature", "properties": { "UID": "PDRM-041", "AGENSI": "PDRM", "KATEGORI": "BALAI POLIS", "HIERARKI": "BALAI/UNIT", "NAMA": "Balai Polis Sungai Jarum", "UNIT": "PENGURUSAN", "INDUK": "IPD Kuala Langat", "ZON": null, "DAERAH": null, "PBT": null, "ALAMAT": null, "TELEFON": null, "SRC_ID": "41", "X_CASS": -22650.888, "Y_CASS": -32994.967, "LATITUDE": 2.8756305, "LONGITUDE": 101.4987072, "GEOM_OK": true }, "geometry": { "type": "Point", "coordinates": [ 101.498707170685478, 2.875630455124164 ] } },
{ "type": "Feature", "properties": { "UID": "PDRM-040", "AGENSI": "PDRM", "KATEGORI": "BALAI POLIS", "HIERARKI": "BALAI/UNIT", "NAMA": "Balai Polis Telok Panglima Garang", "UNIT": "PENGURUSAN", "INDUK": "IPD Kuala Langat", "ZON": null, "DAERAH": null, "PBT": null, "ALAMAT": null, "TELEFON": null, "SRC_ID": "40", "X_CASS": -25268.413, "Y_CASS": -28626.77, "LATITUDE": 2.9151361, "LONGITUDE": 101.4751671, "GEOM_OK": true }, "geometry": { "type": "Point", "coordinates": [ 101.475167075086929, 2.915136070635208 ] } },
{ "type": "Feature", "properties": { "UID": "PDRM-044", "AGENSI": "PDRM", "KATEGORI": "BALAI KOMUNITI", "HIERARKI": "BALAI/UNIT", "NAMA": "Balai Polis Komuniti Saujana Putra", "UNIT": "JPJKK", "INDUK": "IPD Kuala Langat", "ZON": null, "DAERAH": null, "PBT": null, "ALAMAT": null, "TELEFON": null, "SRC_ID": "44", "X_CASS": -13023.931, "Y_CASS": -25887.72, "LATITUDE": 2.9398925, "LONGITUDE": 101.585307, "GEOM_OK": true }, "geometry": { "type": "Point", "coordinates": [ 101.585307002552668, 2.939892532816407 ] } },
{ "type": "Feature", "properties": { "UID": "PDRM-114", "AGENSI": "PDRM", "KATEGORI": "BALAI POLIS", "HIERARKI": "BALAI/UNIT", "NAMA": "Balai Polis Dato' Abu Bakar Baginda", "UNIT": "PENGURUSAN", "INDUK": "IPD Sepang", "ZON": null, "DAERAH": null, "PBT": null, "ALAMAT": null, "TELEFON": null, "SRC_ID": "114", "X_CASS": 3377.711, "Y_CASS": -23300.064, "LATITUDE": 2.9632576, "LONGITUDE": 101.7328455, "GEOM_OK": true }, "geometry": { "type": "Point", "coordinates": [ 101.732845520047249, 2.96325761342524 ] } },
{ "type": "Feature", "properties": { "UID": "PDRM-121", "AGENSI": "PDRM", "KATEGORI": "PONDOK POLIS", "HIERARKI": "BALAI/UNIT", "NAMA": "Pondok Polis IOI City Mall", "UNIT": "PENGURUSAN", "INDUK": "IPD Sepang", "ZON": null, "DAERAH": null, "PBT": null, "ALAMAT": null, "TELEFON": null, "SRC_ID": "121", "X_CASS": 1388.228, "Y_CASS": -22525.116, "LATITUDE": 2.9702711, "LONGITUDE": 101.714952, "GEOM_OK": true }, "geometry": { "type": "Point", "coordinates": [ 101.7149519662036, 2.970271141717031 ] } },
{ "type": "Feature", "properties": { "UID": "PDRM-123", "AGENSI": "PDRM", "KATEGORI": "PONDOK POLIS", "HIERARKI": "BALAI/UNIT", "NAMA": "Pondok Polis Hospital Serdang", "UNIT": "PENGURUSAN", "INDUK": "IPD Sepang", "ZON": null, "DAERAH": null, "PBT": null, "ALAMAT": null, "TELEFON": null, "SRC_ID": "123", "X_CASS": 1988.518, "Y_CASS": -21842.167, "LATITUDE": 2.9764456, "LONGITUDE": 101.7203535, "GEOM_OK": true }, "geometry": { "type": "Point", "coordinates": [ 101.720353513779855, 2.976445641892951 ] } },
{ "type": "Feature", "properties": { "UID": "PDRM-006", "AGENSI": "PDRM", "KATEGORI": "IPD", "HIERARKI": "DAERAH", "NAMA": "IPD Kajang", "UNIT": "PENGURUSAN", "INDUK": "IPD Kajang", "ZON": null, "DAERAH": null, "PBT": null, "ALAMAT": "Kajang, Selangor", "TELEFON": null, "SRC_ID": "6", "X_CASS": 9539.625, "Y_CASS": -19890.15, "LATITUDE": 2.9940756, "LONGITUDE": 101.7882837, "GEOM_OK": true }, "geometry": { "type": "Point", "coordinates": [ 101.788283652995375, 2.994075569398268 ] } },
{ "type": "Feature", "properties": { "UID": "PDRM-056", "AGENSI": "PDRM", "KATEGORI": "BALAI POLIS", "HIERARKI": "BALAI/UNIT", "NAMA": "Balai Polis Kajang", "UNIT": "PENGURUSAN", "INDUK": "IPD Kajang", "ZON": null, "DAERAH": null, "PBT": null, "ALAMAT": null, "TELEFON": null, "SRC_ID": "56", "X_CASS": 9539.625, "Y_CASS": -19890.15, "LATITUDE": 2.9940756, "LONGITUDE": 101.7882837, "GEOM_OK": true }, "geometry": { "type": "Point", "coordinates": [ 101.788283652995375, 2.994075569398268 ] } },
{ "type": "Feature", "properties": { "UID": "PDRM-115", "AGENSI": "PDRM", "KATEGORI": "BALAI POLIS", "HIERARKI": "BALAI/UNIT", "NAMA": "Balai Polis Putra Perdana", "UNIT": "PENGURUSAN", "INDUK": "IPD Sepang", "ZON": null, "DAERAH": null, "PBT": null, "ALAMAT": null, "TELEFON": null, "SRC_ID": "115", "X_CASS": -12193.201, "Y_CASS": -21949.312, "LATITUDE": 2.9755078, "LONGITUDE": 101.5927858, "GEOM_OK": true }, "geometry": { "type": "Point", "coordinates": [ 101.592785845968152, 2.975507771020496 ] } },
{ "type": "Feature", "properties": { "UID": "PDRM-143", "AGENSI": "PDRM", "KATEGORI": "BALAI POLIS", "HIERARKI": "BALAI/UNIT", "NAMA": "Balai Polis Alam Megah Seksyen 27", "UNIT": "PENGURUSAN", "INDUK": "IPD Shah Alam", "ZON": null, "DAERAH": null, "PBT": null, "ALAMAT": null, "TELEFON": null, "SRC_ID": "143", "X_CASS": -15305.199, "Y_CASS": -17796.577, "LATITUDE": 3.0130675, "LONGITUDE": 101.5647988, "GEOM_OK": true }, "geometry": { "type": "Point", "coordinates": [ 101.564798792631194, 3.013067471271483 ] } },
{ "type": "Feature", "properties": { "UID": "JBPM-024", "AGENSI": "JBPM", "KATEGORI": "BBP", "HIERARKI": "BALAI", "NAMA": "BBP Sepang", "UNIT": null, "INDUK": "KLIA", "ZON": "Zon 5", "DAERAH": null, "PBT": null, "ALAMAT": null, "TELEFON": null, "SRC_ID": "24", "X_CASS": 5329.306, "Y_CASS": -53701.137, "LATITUDE": 2.6883262, "LONGITUDE": 101.7503153, "GEOM_OK": true }, "geometry": { "type": "Point", "coordinates": [ 101.750315317653872, 2.688326193221206 ] } },
{ "type": "Feature", "properties": { "UID": "JBPM-021", "AGENSI": "JBPM", "KATEGORI": "BBP / Pejabat Zon", "HIERARKI": "BALAI/PEJABAT ZON", "NAMA": "BBP KLIA", "UNIT": null, "INDUK": "KLIA", "ZON": "Zon 5", "DAERAH": null, "PBT": null, "ALAMAT": null, "TELEFON": null, "SRC_ID": "21", "X_CASS": -2664.655, "Y_CASS": -42210.854, "LATITUDE": 2.7922563, "LONGITUDE": 101.6784507, "GEOM_OK": true }, "geometry": { "type": "Point", "coordinates": [ 101.678450707851113, 2.792256336434187 ] } },
{ "type": "Feature", "properties": { "UID": "JBPM-023", "AGENSI": "JBPM", "KATEGORI": "BBP", "HIERARKI": "BALAI", "NAMA": "BBP Dengkil", "UNIT": null, "INDUK": "KLIA", "ZON": "Zon 5", "DAERAH": null, "PBT": null, "ALAMAT": null, "TELEFON": null, "SRC_ID": "23", "X_CASS": -3228.994, "Y_CASS": -35010.453, "LATITUDE": 2.8573734, "LONGITUDE": 101.673391, "GEOM_OK": true }, "geometry": { "type": "Point", "coordinates": [ 101.673391012884395, 2.857373411168041 ] } },
{ "type": "Feature", "properties": { "UID": "JBPM-026", "AGENSI": "JBPM", "KATEGORI": "BBP", "HIERARKI": "BALAI", "NAMA": "BBP Telok Panglima Garang", "UNIT": null, "INDUK": "KLIA", "ZON": "Zon 5", "DAERAH": null, "PBT": null, "ALAMAT": null, "TELEFON": null, "SRC_ID": "26", "X_CASS": -24369.832, "Y_CASS": -31198.963, "LATITUDE": 2.8918739, "LONGITUDE": 101.4832476, "GEOM_OK": true }, "geometry": { "type": "Point", "coordinates": [ 101.483247630319909, 2.891873923690383 ] } },
{ "type": "Feature", "properties": { "UID": "JBPM-033", "AGENSI": "JBPM", "KATEGORI": "BBP", "HIERARKI": "BALAI", "NAMA": "BBP Sabak Bernam", "UNIT": null, "INDUK": "Sabak Bernam", "ZON": "Zon 7", "DAERAH": null, "PBT": null, "ALAMAT": null, "TELEFON": null, "SRC_ID": "33", "X_CASS": -79910.993, "Y_CASS": 65718.938, "LATITUDE": 3.768249, "LONGITUDE": 100.9833224, "GEOM_OK": true }, "geometry": { "type": "Point", "coordinates": [ 100.983322353845011, 3.768249022151304 ] } },
{ "type": "Feature", "properties": { "UID": "JBPM-034", "AGENSI": "JBPM", "KATEGORI": "BBP", "HIERARKI": "BALAI", "NAMA": "BBP Sungai Besar", "UNIT": null, "INDUK": "Sabak Bernam", "ZON": "Zon 7", "DAERAH": null, "PBT": null, "ALAMAT": null, "TELEFON": null, "SRC_ID": "34", "X_CASS": -78785.09, "Y_CASS": 54256.282, "LATITUDE": 3.6645958, "LONGITUDE": 100.9935045, "GEOM_OK": true }, "geometry": { "type": "Point", "coordinates": [ 100.993504466386057, 3.664595799632743 ] } },
{ "type": "Feature", "properties": { "UID": "JBPM-035", "AGENSI": "JBPM", "KATEGORI": "BBP", "HIERARKI": "BALAI", "NAMA": "BBP Tanjung Karang", "UNIT": null, "INDUK": "Sabak Bernam", "ZON": "Zon 7", "DAERAH": null, "PBT": null, "ALAMAT": null, "TELEFON": null, "SRC_ID": "35", "X_CASS": -59647.168, "Y_CASS": 27553.362, "LATITUDE": 3.4231736, "LONGITUDE": 101.1658311, "GEOM_OK": true }, "geometry": { "type": "Point", "coordinates": [ 101.165831123933472, 3.423173606485316 ] } },
{ "type": "Feature", "properties": { "UID": "JBPM-036", "AGENSI": "JBPM", "KATEGORI": "BBP", "HIERARKI": "BALAI", "NAMA": "BBP Kuala Selangor", "UNIT": null, "INDUK": "Sabak Bernam", "ZON": "Zon 7", "DAERAH": null, "PBT": null, "ALAMAT": null, "TELEFON": null, "SRC_ID": "36", "X_CASS": -49819.986, "Y_CASS": 16899.939, "LATITUDE": 3.3268475, "LONGITUDE": 101.2542802, "GEOM_OK": true }, "geometry": { "type": "Point", "coordinates": [ 101.254280218768983, 3.32684750911024 ] } },
{ "type": "Feature", "properties": { "UID": "JBPM-037", "AGENSI": "JBPM", "KATEGORI": "BBP", "HIERARKI": "BALAI", "NAMA": "BBP Bestari Jaya", "UNIT": null, "INDUK": "Sabak Bernam", "ZON": "Zon 7", "DAERAH": null, "PBT": null, "ALAMAT": null, "TELEFON": null, "SRC_ID": "37", "X_CASS": -33284.575, "Y_CASS": 22585.689, "LATITUDE": 3.3782751, "LONGITUDE": 101.4030701, "GEOM_OK": true }, "geometry": { "type": "Point", "coordinates": [ 101.403070148495161, 3.378275078108091 ] } },
{ "type": "Feature", "properties": { "UID": "JBPM-030", "AGENSI": "JBPM", "KATEGORI": "BBP", "HIERARKI": "BALAI", "NAMA": "BBP Kuala Kubu Bharu", "UNIT": null, "INDUK": "Rawang", "ZON": "Zon 6", "DAERAH": null, "PBT": null, "ALAMAT": null, "TELEFON": null, "SRC_ID": "30", "X_CASS": -4554.369, "Y_CASS": 41761.877, "LATITUDE": 3.5516521, "LONGITUDE": 101.6616538, "GEOM_OK": true }, "geometry": { "type": "Point", "coordinates": [ 101.661653849606168, 3.551652062723498 ] } },
{ "type": "Feature", "properties": { "UID": "JBPM-031", "AGENSI": "JBPM", "KATEGORI": "BBP", "HIERARKI": "BALAI", "NAMA": "BBP Bukit Sentosa", "UNIT": null, "INDUK": "Rawang", "ZON": "Zon 6", "DAERAH": null, "PBT": null, "ALAMAT": null, "TELEFON": null, "SRC_ID": "31", "X_CASS": -15670.367, "Y_CASS": 25119.555, "LATITUDE": 3.4011744, "LONGITUDE": 101.5615789, "GEOM_OK": true }, "geometry": { "type": "Point", "coordinates": [ 101.561578935199108, 3.401174411080991 ] } },
{ "type": "Feature", "properties": { "UID": "JBPM-029", "AGENSI": "JBPM", "KATEGORI": "BBP", "HIERARKI": "BALAI", "NAMA": "BBP Batu Arang", "UNIT": null, "INDUK": "Rawang", "ZON": "Zon 6", "DAERAH": null, "PBT": null, "ALAMAT": null, "TELEFON": null, "SRC_ID": "29", "X_CASS": -25499.217, "Y_CASS": 15965.512, "LATITUDE": 3.3184028, "LONGITUDE": 101.473123, "GEOM_OK": true }, "geometry": { "type": "Point", "coordinates": [ 101.473123039906056, 3.318402794478604 ] } },
{ "type": "Feature", "properties": { "UID": "JBPM-027", "AGENSI": "JBPM", "KATEGORI": "BBP / Pejabat Zon", "HIERARKI": "BALAI/PEJABAT ZON", "NAMA": "BBP Rawang", "UNIT": null, "INDUK": "Rawang", "ZON": "Zon 6", "DAERAH": null, "PBT": null, "ALAMAT": null, "TELEFON": null, "SRC_ID": "27", "X_CASS": -15735.713, "Y_CASS": 14729.041, "LATITUDE": 3.3072095, "LONGITUDE": 101.5609745, "GEOM_OK": true }, "geometry": { "type": "Point", "coordinates": [ 101.560974482142186, 3.307209532476521 ] } },
{ "type": "Feature", "properties": { "UID": "JBPM-028", "AGENSI": "JBPM", "KATEGORI": "BBP", "HIERARKI": "BALAI", "NAMA": "BBP Selayang", "UNIT": null, "INDUK": "Rawang", "ZON": "Zon 6", "DAERAH": null, "PBT": null, "ALAMAT": null, "TELEFON": null, "SRC_ID": "28", "X_CASS": -5206.267, "Y_CASS": 8852.698, "LATITUDE": 3.254047, "LONGITUDE": 101.6557048, "GEOM_OK": true }, "geometry": { "type": "Point", "coordinates": [ 101.655704753062253, 3.254046995797632 ] } },
{ "type": "Feature", "properties": { "UID": "JBPM-007", "AGENSI": "JBPM", "KATEGORI": "BBP", "HIERARKI": "BALAI", "NAMA": "BBP Sungai Buloh", "UNIT": null, "INDUK": "Petaling Jaya", "ZON": "Zon 2", "DAERAH": null, "PBT": null, "ALAMAT": null, "TELEFON": null, "SRC_ID": "7", "X_CASS": -15760.927, "Y_CASS": 3008.37, "LATITUDE": 3.2012153, "LONGITUDE": 101.5607297, "GEOM_OK": true }, "geometry": { "type": "Point", "coordinates": [ 101.560729673623499, 3.201215314933348 ] } },
{ "type": "Feature", "properties": { "UID": "JBPM-011", "AGENSI": "JBPM", "KATEGORI": "BBP", "HIERARKI": "BALAI", "NAMA": "BBP Kapar", "UNIT": null, "INDUK": "Klang", "ZON": "Zon 3", "DAERAH": null, "PBT": null, "ALAMAT": null, "TELEFON": null, "SRC_ID": "11", "X_CASS": -32364.688, "Y_CASS": -4245.743, "LATITUDE": 3.1356275, "LONGITUDE": 101.4113426, "GEOM_OK": true }, "geometry": { "type": "Point", "coordinates": [ 101.411342604057921, 3.135627534419588 ] } },
{ "type": "Feature", "properties": { "UID": "JBPM-005", "AGENSI": "JBPM", "KATEGORI": "BBP", "HIERARKI": "BALAI", "NAMA": "BBP Damansara", "UNIT": null, "INDUK": "Petaling Jaya", "ZON": "Zon 2", "DAERAH": null, "PBT": null, "ALAMAT": null, "TELEFON": null, "SRC_ID": "5", "X_CASS": -8781.718, "Y_CASS": -5333.231, "LATITUDE": 3.1257669, "LONGITUDE": 101.6235054, "GEOM_OK": true }, "geometry": { "type": "Point", "coordinates": [ 101.623505351536394, 3.12576687567657 ] } },
{ "type": "Feature", "properties": { "UID": "JBPM-015", "AGENSI": "JBPM", "KATEGORI": "BBP", "HIERARKI": "BALAI", "NAMA": "BBP Ampang", "UNIT": null, "INDUK": "Hulu Langat", "ZON": "Zon 4", "DAERAH": null, "PBT": null, "ALAMAT": null, "TELEFON": null, "SRC_ID": "15", "X_CASS": 6753.009, "Y_CASS": -3142.257, "LATITUDE": 3.1455397, "LONGITUDE": 101.7632698, "GEOM_OK": true }, "geometry": { "type": "Point", "coordinates": [ 101.763269752244213, 3.145539670011136 ] } },
{ "type": "Feature", "properties": { "UID": "JBPM-014", "AGENSI": "JBPM", "KATEGORI": "BBP / Pejabat Zon", "HIERARKI": "BALAI/PEJABAT ZON", "NAMA": "BBP Pandan Indah", "UNIT": null, "INDUK": "Hulu Langat", "ZON": "Zon 4", "DAERAH": null, "PBT": null, "ALAMAT": null, "TELEFON": null, "SRC_ID": "14", "X_CASS": 5204.108, "Y_CASS": -5098.221, "LATITUDE": 3.1278563, "LONGITUDE": 101.7493288, "GEOM_OK": true }, "geometry": { "type": "Point", "coordinates": [ 101.749328825321541, 3.127856338645934 ] } },
{ "type": "Feature", "properties": { "UID": "JBPM-004", "AGENSI": "JBPM", "KATEGORI": "BBP", "HIERARKI": "BALAI", "NAMA": "BBP Petaling Jaya", "UNIT": null, "INDUK": "Petaling Jaya", "ZON": "Zon 2", "DAERAH": null, "PBT": null, "ALAMAT": null, "TELEFON": null, "SRC_ID": "4", "X_CASS": -6568.09, "Y_CASS": -8461.245, "LATITUDE": 3.0974745, "LONGITUDE": 101.6434134, "GEOM_OK": true }, "geometry": { "type": "Point", "coordinates": [ 101.643413364261875, 3.097474532506913 ] } },
{ "type": "Feature", "properties": { "UID": "JBPM-002", "AGENSI": "JBPM", "KATEGORI": "BBP", "HIERARKI": "BALAI", "NAMA": "BBP Subang Jaya", "UNIT": null, "INDUK": "Shah Alam", "ZON": "Zon 1", "DAERAH": null, "PBT": null, "ALAMAT": null, "TELEFON": null, "SRC_ID": "2", "X_CASS": -13086.426, "Y_CASS": -11054.939, "LATITUDE": 3.0740313, "LONGITUDE": 101.5847688, "GEOM_OK": true }, "geometry": { "type": "Point", "coordinates": [ 101.584768770846821, 3.074031287247912 ] } },
{ "type": "Feature", "properties": { "UID": "JBPM-001", "AGENSI": "JBPM", "KATEGORI": "BBP / Pejabat Zon", "HIERARKI": "BALAI/PEJABAT ZON", "NAMA": "BBP Shah Alam", "UNIT": null, "INDUK": "Shah Alam", "ZON": "Zon 1", "DAERAH": null, "PBT": null, "ALAMAT": null, "TELEFON": null, "SRC_ID": "1", "X_CASS": -20213.698, "Y_CASS": -12529.45, "LATITUDE": 3.0607065, "LONGITUDE": 101.5206501, "GEOM_OK": true }, "geometry": { "type": "Point", "coordinates": [ 101.520650120300473, 3.060706549316633 ] } },
{ "type": "Feature", "properties": { "UID": "JBPM-010", "AGENSI": "JBPM", "KATEGORI": "BBP", "HIERARKI": "BALAI", "NAMA": "BBP Klang Utara", "UNIT": null, "INDUK": "Klang", "ZON": "Zon 3", "DAERAH": null, "PBT": null, "ALAMAT": null, "TELEFON": null, "SRC_ID": "10", "X_CASS": -28785.646, "Y_CASS": -12523.313, "LATITUDE": 3.0607688, "LONGITUDE": 101.4435377, "GEOM_OK": true }, "geometry": { "type": "Point", "coordinates": [ 101.443537741086018, 3.060768761075199 ] } },
{ "type": "Feature", "properties": { "UID": "JBPM-009", "AGENSI": "JBPM", "KATEGORI": "BBP", "HIERARKI": "BALAI", "NAMA": "BBP Klang Selatan", "UNIT": null, "INDUK": "Klang", "ZON": "Zon 3", "DAERAH": null, "PBT": null, "ALAMAT": null, "TELEFON": null, "SRC_ID": "9", "X_CASS": -28364.984, "Y_CASS": -14530.189, "LATITUDE": 3.0426195, "LONGITUDE": 101.447321, "GEOM_OK": true }, "geometry": { "type": "Point", "coordinates": [ 101.44732100350798, 3.042619512770508 ] } },
{ "type": "Feature", "properties": { "UID": "JBPM-012", "AGENSI": "JBPM", "KATEGORI": "BBP", "HIERARKI": "BALAI", "NAMA": "BBP Andalas", "UNIT": null, "INDUK": "Klang", "ZON": "Zon 3", "DAERAH": null, "PBT": null, "ALAMAT": null, "TELEFON": null, "SRC_ID": "12", "X_CASS": -28087.506, "Y_CASS": -17174.296, "LATITUDE": 3.0187076, "LONGITUDE": 101.4498158, "GEOM_OK": true }, "geometry": { "type": "Point", "coordinates": [ 101.449815789451435, 3.018707562071024 ] } },
{ "type": "Feature", "properties": { "UID": "JBPM-008", "AGENSI": "JBPM", "KATEGORI": "BBP / Pejabat Zon", "HIERARKI": "BALAI/PEJABAT ZON", "NAMA": "BBP Pelabuhan Klang", "UNIT": null, "INDUK": "Klang", "ZON": "Zon 3", "DAERAH": null, "PBT": null, "ALAMAT": null, "TELEFON": null, "SRC_ID": "8", "X_CASS": -32669.013, "Y_CASS": -17942.949, "LATITUDE": 3.0117578, "LONGITUDE": 101.4086025, "GEOM_OK": true }, "geometry": { "type": "Point", "coordinates": [ 101.408602482016562, 3.011757823118562 ] } },
{ "type": "Feature", "properties": { "UID": "JBPM-013", "AGENSI": "JBPM", "KATEGORI": "BBP", "HIERARKI": "BALAI", "NAMA": "BBP Pulau Indah", "UNIT": null, "INDUK": "Klang", "ZON": "Zon 3", "DAERAH": null, "PBT": null, "ALAMAT": null, "TELEFON": null, "SRC_ID": "13", "X_CASS": -38834.815, "Y_CASS": -26036.65, "LATITUDE": 2.9385624, "LONGITUDE": 101.3531404, "GEOM_OK": true }, "geometry": { "type": "Point", "coordinates": [ 101.353140415282681, 2.938562436149527 ] } },
{ "type": "Feature", "properties": { "UID": "JBPM-006", "AGENSI": "JBPM", "KATEGORI": "BBP / Pejabat Zon", "HIERARKI": "BALAI/PEJABAT ZON", "NAMA": "BBP Puchong", "UNIT": null, "INDUK": "Petaling Jaya", "ZON": "Zon 2", "DAERAH": null, "PBT": null, "ALAMAT": null, "TELEFON": null, "SRC_ID": "6", "X_CASS": -9369.524, "Y_CASS": -15519.038, "LATITUDE": 3.0336541, "LONGITUDE": 101.6181975, "GEOM_OK": true }, "geometry": { "type": "Point", "coordinates": [ 101.618197503635045, 3.033654126258257 ] } },
{ "type": "Feature", "properties": { "UID": "JBPM-020", "AGENSI": "JBPM", "KATEGORI": "BBP", "HIERARKI": "BALAI", "NAMA": "BBP Bandar Tun Hussein Onn", "UNIT": null, "INDUK": "Hulu Langat", "ZON": "Zon 4", "DAERAH": null, "PBT": null, "ALAMAT": null, "TELEFON": null, "SRC_ID": "20", "X_CASS": 6455.232, "Y_CASS": -15267.525, "LATITUDE": 3.0358889, "LONGITUDE": 101.7605526, "GEOM_OK": true }, "geometry": { "type": "Point", "coordinates": [ 101.760552634366491, 3.035888932846897 ] } },
{ "type": "Feature", "properties": { "UID": "JBPM-019", "AGENSI": "JBPM", "KATEGORI": "BBP", "HIERARKI": "BALAI", "NAMA": "BBP Serdang", "UNIT": null, "INDUK": "Hulu Langat", "ZON": "Zon 4", "DAERAH": null, "PBT": null, "ALAMAT": null, "TELEFON": null, "SRC_ID": "19", "X_CASS": 777.79, "Y_CASS": -16898.034, "LATITUDE": 3.0211602, "LONGITUDE": 101.7094758, "GEOM_OK": true }, "geometry": { "type": "Point", "coordinates": [ 101.709475779352942, 3.021160168815638 ] } },
{ "type": "Feature", "properties": { "UID": "JBPM-016", "AGENSI": "JBPM", "KATEGORI": "BBP", "HIERARKI": "BALAI", "NAMA": "BBP Kajang", "UNIT": null, "INDUK": "Hulu Langat", "ZON": "Zon 4", "DAERAH": null, "PBT": null, "ALAMAT": null, "TELEFON": null, "SRC_ID": "16", "X_CASS": 10160.939, "Y_CASS": -20427.515, "LATITUDE": 2.989214, "LONGITUDE": 101.7938708, "GEOM_OK": true }, "geometry": { "type": "Point", "coordinates": [ 101.793870805220479, 2.989214005177323 ] } },
{ "type": "Feature", "properties": { "UID": "JBPM-018", "AGENSI": "JBPM", "KATEGORI": "BBP", "HIERARKI": "BALAI", "NAMA": "BBP Semenyih", "UNIT": null, "INDUK": "Hulu Langat", "ZON": "Zon 4", "DAERAH": null, "PBT": null, "ALAMAT": null, "TELEFON": null, "SRC_ID": "18", "X_CASS": 17286.512, "Y_CASS": -26717.21, "LATITUDE": 2.9323097, "LONGITUDE": 101.8579436, "GEOM_OK": true }, "geometry": { "type": "Point", "coordinates": [ 101.85794362112766, 2.932309744213178 ] } },
{ "type": "Feature", "properties": { "UID": "JBPM-017", "AGENSI": "JBPM", "KATEGORI": "BBP", "HIERARKI": "BALAI", "NAMA": "BBP Bangi", "UNIT": null, "INDUK": "Hulu Langat", "ZON": "Zon 4", "DAERAH": null, "PBT": null, "ALAMAT": null, "TELEFON": null, "SRC_ID": "17", "X_CASS": 6767.619, "Y_CASS": -26185.163, "LATITUDE": 2.937157, "LONGITUDE": 101.7633293, "GEOM_OK": true }, "geometry": { "type": "Point", "coordinates": [ 101.76332934968616, 2.937156986377911 ] } },
{ "type": "Feature", "properties": { "UID": "JBPM-022", "AGENSI": "JBPM", "KATEGORI": "BBP", "HIERARKI": "BALAI", "NAMA": "BBP Cyberjaya", "UNIT": null, "INDUK": "KLIA", "ZON": "Zon 5", "DAERAH": null, "PBT": null, "ALAMAT": null, "TELEFON": null, "SRC_ID": "22", "X_CASS": -4999.069, "Y_CASS": -28922.871, "LATITUDE": 2.9124295, "LONGITUDE": 101.6574834, "GEOM_OK": true }, "geometry": { "type": "Point", "coordinates": [ 101.657483403794814, 2.912429484820097 ] } },
{ "type": "Feature", "properties": { "UID": "JBPM-032", "AGENSI": "JBPM", "KATEGORI": "BBP / Pejabat Zon", "HIERARKI": "BALAI/PEJABAT ZON", "NAMA": "BBP Sekinchan", "UNIT": null, "INDUK": "Sabak Bernam", "ZON": "Zon 7", "DAERAH": null, "PBT": null, "ALAMAT": null, "TELEFON": null, "SRC_ID": "32", "X_CASS": -67399.808, "Y_CASS": 37918.577, "LATITUDE": 3.5168899, "LONGITUDE": 101.0960355, "GEOM_OK": true }, "geometry": { "type": "Point", "coordinates": [ 101.096035451983369, 3.516889907411044 ] } },
{ "type": "Feature", "properties": { "UID": "JBPM-003", "AGENSI": "JBPM", "KATEGORI": "BBP", "HIERARKI": "BALAI", "NAMA": "BBP Bukit Jelutong", "UNIT": null, "INDUK": "Shah Alam", "ZON": "Zon 1", "DAERAH": null, "PBT": null, "ALAMAT": null, "TELEFON": null, "SRC_ID": "3", "X_CASS": -17435.944, "Y_CASS": -7033.722, "LATITUDE": 3.1104032, "LONGITUDE": 101.5456458, "GEOM_OK": true }, "geometry": { "type": "Point", "coordinates": [ 101.545645784566517, 3.110403230196004 ] } },
{ "type": "Feature", "properties": { "UID": "JBPM-025", "AGENSI": "JBPM", "KATEGORI": "BBP", "HIERARKI": "BALAI", "NAMA": "BBP Banting", "UNIT": null, "INDUK": "KLIA", "ZON": "Zon 5", "DAERAH": null, "PBT": null, "ALAMAT": null, "TELEFON": null, "SRC_ID": "25", "X_CASS": -21869.144, "Y_CASS": -39640.493, "LATITUDE": 2.8155313, "LONGITUDE": 101.5057325, "GEOM_OK": true }, "geometry": { "type": "Point", "coordinates": [ 101.50573245491276, 2.815531262364627 ] } },
{ "type": "Feature", "properties": { "UID": "APM-001", "AGENSI": "APM", "KATEGORI": "APM Negeri", "HIERARKI": "NEGERI", "NAMA": "APM Negeri Selangor", "UNIT": null, "INDUK": null, "ZON": null, "DAERAH": "Selangor", "PBT": null, "ALAMAT": "Aras 3, Wisma Persekutuan Klang, Persiaran Bukit Raja 1/KU1, Bandar Baru Klang, 41150 Klang, Selangor", "TELEFON": null, "SRC_ID": "0", "X_CASS": -26030.213, "Y_CASS": -12904.872, "LATITUDE": 3.0573166, "LONGITUDE": 101.4683251, "GEOM_OK": true }, "geometry": { "type": "Point", "coordinates": [ 101.468325084672387, 3.057316612583514 ] } },
{ "type": "Feature", "properties": { "UID": "APM-002", "AGENSI": "APM", "KATEGORI": "APM Daerah", "HIERARKI": "DAERAH", "NAMA": "PPAD Petaling", "UNIT": null, "INDUK": null, "ZON": null, "DAERAH": "Petaling", "PBT": null, "ALAMAT": "139 Kompleks Puspada, Jalan Raya Barat, 41000 Klang, Selangor", "TELEFON": null, "SRC_ID": "0", "X_CASS": -28926.689, "Y_CASS": -14910.054, "LATITUDE": 3.0391845, "LONGITUDE": 101.4422679, "GEOM_OK": true }, "geometry": { "type": "Point", "coordinates": [ 101.442267869460537, 3.039184490408355 ] } },
{ "type": "Feature", "properties": { "UID": "APM-003", "AGENSI": "APM", "KATEGORI": "APM Daerah", "HIERARKI": "DAERAH", "NAMA": "PPAD Klang", "UNIT": null, "INDUK": null, "ZON": null, "DAERAH": "Klang", "PBT": null, "ALAMAT": "139 Kompleks Puspada, Jalan Raya Barat, 41000 Klang, Selangor", "TELEFON": null, "SRC_ID": "0", "X_CASS": -28936.683, "Y_CASS": -14879.118, "LATITUDE": 3.0394643, "LONGITUDE": 101.442178, "GEOM_OK": true }, "geometry": { "type": "Point", "coordinates": [ 101.442177986825143, 3.039464266622967 ] } },
{ "type": "Feature", "properties": { "UID": "APM-004", "AGENSI": "APM", "KATEGORI": "APM Daerah", "HIERARKI": "DAERAH", "NAMA": "PPAD Kuala Langat", "UNIT": null, "INDUK": null, "ZON": null, "DAERAH": "Kuala Langat", "PBT": null, "ALAMAT": "425 A, Jalan Raja Husin, Telok Datok, 42700 Banting, Selangor", "TELEFON": null, "SRC_ID": "0", "X_CASS": -20477.916, "Y_CASS": -39017.712, "LATITUDE": 2.821162, "LONGITUDE": 101.5182457, "GEOM_OK": true }, "geometry": { "type": "Point", "coordinates": [ 101.518245691575245, 2.82116202899655 ] } },
{ "type": "Feature", "properties": { "UID": "APM-005", "AGENSI": "APM", "KATEGORI": "APM Daerah", "HIERARKI": "DAERAH", "NAMA": "PPAD Hulu Langat", "UNIT": null, "INDUK": null, "ZON": null, "DAERAH": "Hulu Langat", "PBT": null, "ALAMAT": "5/5, Seksyen 5, Taman West Country, Off Jalan Reko, 43650 Kajang, Selangor", "TELEFON": null, "SRC_ID": "0", "X_CASS": 9774.022, "Y_CASS": -23184.279, "LATITUDE": 2.9642852, "LONGITUDE": 101.7903813, "GEOM_OK": true }, "geometry": { "type": "Point", "coordinates": [ 101.790381346086164, 2.964285246567875 ] } },
{ "type": "Feature", "properties": { "UID": "APM-006", "AGENSI": "APM", "KATEGORI": "APM Daerah", "HIERARKI": "DAERAH", "NAMA": "PPAD Sepang", "UNIT": null, "INDUK": null, "ZON": null, "DAERAH": "Sepang", "PBT": null, "ALAMAT": "Airportcity Business Centre, 23, Jalan Airport City 1, Kota Warisan, 43900 Sepang, Selangor", "TELEFON": null, "SRC_ID": "0", "X_CASS": 904.584, "Y_CASS": -38705.466, "LATITUDE": 2.8239483, "LONGITUDE": 101.7105602, "GEOM_OK": true }, "geometry": { "type": "Point", "coordinates": [ 101.710560242582432, 2.823948345266706 ] } },
{ "type": "Feature", "properties": { "UID": "APM-007", "AGENSI": "APM", "KATEGORI": "APM Daerah", "HIERARKI": "DAERAH", "NAMA": "PPAD Gombak", "UNIT": null, "INDUK": null, "ZON": null, "DAERAH": "Gombak", "PBT": null, "ALAMAT": "Jalan Padang Tembak, 50556 Kuala Lumpur", "TELEFON": null, "SRC_ID": "0", "X_CASS": 2191.996, "Y_CASS": 241.493, "LATITUDE": 3.1761538, "LONGITUDE": 101.7222458, "GEOM_OK": true }, "geometry": { "type": "Point", "coordinates": [ 101.722245828588314, 3.176153787051001 ] } },
{ "type": "Feature", "properties": { "UID": "APM-008", "AGENSI": "APM", "KATEGORI": "APM Daerah", "HIERARKI": "DAERAH", "NAMA": "PPAD Kuala Selangor", "UNIT": null, "INDUK": null, "ZON": null, "DAERAH": "Kuala Selangor", "PBT": null, "ALAMAT": "1024-1026, Jalan Raja Jalil, 45000 Kuala Selangor, Selangor", "TELEFON": null, "SRC_ID": "0", "X_CASS": -50379.824, "Y_CASS": 18291.512, "LATITUDE": 3.3394313, "LONGITUDE": 101.2492409, "GEOM_OK": true }, "geometry": { "type": "Point", "coordinates": [ 101.249240901588792, 3.339431301521087 ] } },
{ "type": "Feature", "properties": { "UID": "APM-009", "AGENSI": "APM", "KATEGORI": "APM Daerah", "HIERARKI": "DAERAH", "NAMA": "PPAD Hulu Selangor", "UNIT": null, "INDUK": null, "ZON": null, "DAERAH": "Hulu Selangor", "PBT": null, "ALAMAT": "Jalan Syed Masyor, Kampung Tun Abdul Razak, 44000 Kuala Kubu Baru, Selangor", "TELEFON": null, "SRC_ID": "0", "X_CASS": -5199.782, "Y_CASS": 43463.324, "LATITUDE": 3.5670404, "LONGITUDE": 101.6558494, "GEOM_OK": true }, "geometry": { "type": "Point", "coordinates": [ 101.655849354755773, 3.567040364419849 ] } },
{ "type": "Feature", "properties": { "UID": "APM-010", "AGENSI": "APM", "KATEGORI": "APM Daerah", "HIERARKI": "DAERAH", "NAMA": "PPAD Sabak Bernam", "UNIT": null, "INDUK": null, "ZON": null, "DAERAH": "Sabak Bernam", "PBT": null, "ALAMAT": "623, Kuarters J.K.R, Jalan Parit 1 Timur, 45300 Sungai Besar, Selangor", "TELEFON": null, "SRC_ID": "0", "X_CASS": -78607.586, "Y_CASS": 55758.385, "LATITUDE": 3.6781802, "LONGITUDE": 100.9950963, "GEOM_OK": true }, "geometry": { "type": "Point", "coordinates": [ 100.995096305069509, 3.678180188420613 ] } }
]
}
